{"type": "FeatureCollection", "features": [{"id": "0", "type": "Feature", "properties": {"Program Name": "Craig Public Health Center", "Street Address 1": "1800 Craig-Klawock Hwy", "City": "Craig", "State": "AK", "Zip": "99921", "Phone": "907-826-3433"}, "geometry": {"type": "Point", "coordinates": [-133.1402772, 55.4781397]}}, {"id": "1", "type": "Feature", "properties": {"Program Name": "Fairbanks Public Health Center", "Street Address 1": null, "City": "Fairbanks", "State": "AK", "Zip": "99701", "Phone": "907-452-1776"}, "geometry": {"type": "Point", "coordinates": [-147.7018962, 64.8153882]}}, {"id": "3", "type": "Feature", "properties": {"Program Name": "Four A\u2019s Anchorage Syringe Access Program", "Street Address 1": "1057 W Fireweed Lane", "City": "Anchorage", "State": "AK", "Zip": "99503", "Phone": "907-263-2048"}, "geometry": {"type": "Point", "coordinates": [-149.889618, 61.189513]}}, {"id": "4", "type": "Feature", "properties": {"Program Name": "Four A\u2019s Anchorage Syringe Access Program", "Street Address 1": "174 S Franklin St", "City": "Juneau", "State": "AK", "Zip": "99801", "Phone": "907-263-2048"}, "geometry": {"type": "Point", "coordinates": [-134.515657, 58.359222]}}, {"id": "5", "type": "Feature", "properties": {"Program Name": "Four A\u2019s Anchorage Syringe Access Program", "Street Address 1": "1021 E 3rd Avenue", "City": "Anchorage", "State": "AK", "Zip": "99501", "Phone": "907-263-2048"}, "geometry": {"type": "Point", "coordinates": [-149.87602, 61.218539]}}, {"id": "6", "type": "Feature", "properties": {"Program Name": "Homer Public Health Center ", "Street Address 1": null, "City": "Homer", "State": "AK", "Zip": "99603", "Phone": "907-235-8857"}, "geometry": {"type": "Point", "coordinates": [-151.4651718, 59.6603225]}}, {"id": "7", "type": "Feature", "properties": {"Program Name": "Interior AIDS Association ", "Street Address 1": "710 3rd Ave", "City": "Fairbanks", "State": "AK", "Zip": "99701", "Phone": " Joree Hill"}, "geometry": {"type": "Point", "coordinates": [-147.7018962, 64.8153882]}}, {"id": "8", "type": "Feature", "properties": {"Program Name": "Jamhi Health and Wellness/NCAAD", "Street Address 1": null, "City": "Juneau", "State": "AK", "Zip": "99801", "Phone": "907-463-3303"}, "geometry": {"type": "Point", "coordinates": [-134.515657, 58.359222]}}, {"id": "9", "type": "Feature", "properties": {"Program Name": "MyHouse ", "Street Address 1": null, "City": "Wasilla", "State": "AK", "Zip": "99654", "Phone": "907-373-4357"}, "geometry": {"type": "Point", "coordinates": [-149.4133522, 61.5909201]}}, {"id": "10", "type": "Feature", "properties": {"Program Name": "REAL About Addiction ", "Street Address 1": null, "City": "Anchorage", "State": "AK", "Zip": "99503", "Phone": "907-440-7289"}, "geometry": {"type": "Point", "coordinates": [-149.889618, 61.189513]}}, {"id": "12", "type": "Feature", "properties": {"Program Name": "Central Arkansas Harm Reduction Project", "Street Address 1": "500 W Markham St", "City": "Little Rock ", "State": "AR", "Zip": "72201", "Phone": "501-438-9158"}, "geometry": {"type": "Point", "coordinates": [-92.276733, 34.744909]}}, {"id": "13", "type": "Feature", "properties": {"Program Name": "Shot In The Dark", "Street Address 1": "200 Washington Street", "City": null, "State": "AZ", "Zip": "85003", "Phone": "623-738-5539"}, "geometry": {"type": "Point", "coordinates": [-112.0760774, 33.4503467]}}, {"id": "14", "type": "Feature", "properties": {"Program Name": "Sonoran Prevention Works: Statewide ", "Street Address 1": "340 E Dunlap Ave", "City": "Phoenix", "State": "AZ", "Zip": "85020", "Phone": " Brogan - bshell@spwaz.org"}, "geometry": {"type": "Point", "coordinates": [-112.059572, 33.563428]}}, {"id": "15", "type": "Feature", "properties": {"Program Name": "Sonoran Prevention Works: Statewide ", "Street Address 1": "2579 N 1st Ave", "City": "Tucson", "State": "AZ", "Zip": "85710", "Phone": " Brogan - bshell@spwaz.org"}, "geometry": {"type": "Point", "coordinates": [-110.821987, 32.217521]}}, {"id": "16", "type": "Feature", "properties": {"Program Name": "Sonoran Prevention Works: Statewide ", "Street Address 1": "154 E Merritt", "City": "Prescott", "State": "AZ", "Zip": "86301", "Phone": " Brogan - bshell@spwaz.org"}, "geometry": {"type": "Point", "coordinates": [-112.458886, 34.570818]}}, {"id": "29", "type": "Feature", "properties": {"Program Name": "Berkeley NEED ", "Street Address 1": "2328 Durant Ave", "City": "Berkeley", "State": "CA", "Zip": "94704", "Phone": " davidshowalter90@gmail.com; Anna Rose Steiner"}, "geometry": {"type": "Point", "coordinates": [-122.2625377, 37.8682724]}}, {"id": "30", "type": "Feature", "properties": {"Program Name": "Berkeley NEED ", "Street Address 1": "3124 Shattuck Ave", "City": "Berkeley", "State": "CA", "Zip": "94703", "Phone": " davidshowalter90@gmail.com; Anna Rose Steiner"}, "geometry": {"type": "Point", "coordinates": [-122.274026, 37.861748]}}, {"id": "31", "type": "Feature", "properties": {"Program Name": "Berkeley NEED ", "Street Address 1": "1835 San Pablo Ave", "City": "Berkeley", "State": "CA", "Zip": "94702", "Phone": " davidshowalter90@gmail.com; Anna Rose Steiner"}, "geometry": {"type": "Point", "coordinates": [-122.283161, 37.862825]}}, {"id": "32", "type": "Feature", "properties": {"Program Name": "Berkeley NEED ", "Street Address 1": "People's Park", "City": "Berkeley", "State": "CA", "Zip": "94704", "Phone": " davidshowalter90@gmail.com; Anna Rose Steiner"}, "geometry": {"type": "Point", "coordinates": [-122.2625377, 37.8682724]}}, {"id": "33", "type": "Feature", "properties": {"Program Name": "Bienestar", "Street Address 1": "5326 E Beverly Blvd", "City": "Los Angeles", "State": "CA", "Zip": "90022", "Phone": "EJALAYER@BIENESTAR.ORG"}, "geometry": {"type": "Point", "coordinates": [-118.155853, 34.022481]}}, {"id": "34", "type": "Feature", "properties": {"Program Name": "Bienestar", "Street Address 1": "117 E Harry Bridges Blvd", "City": "Wilmington", "State": "CA", "Zip": "90744", "Phone": "EJALAYER@BIENESTAR.ORG"}, "geometry": {"type": "Point", "coordinates": [-118.262679, 33.783202]}}, {"id": "36", "type": "Feature", "properties": {"Program Name": "Center Point Drug Abuse Alternatives Center (DAAC)", "Street Address 1": "2403 Professional Dr.", "City": "Santa Rosa", "State": "CA", "Zip": "95403", "Phone": "707-526-2999 x 323"}, "geometry": {"type": "Point", "coordinates": [-122.7442054, 38.4729505]}}, {"id": "37", "type": "Feature", "properties": {"Program Name": "Common Ground/Venice Family Clinic", "Street Address 1": "622 Rose Avenue\u00a0", "City": "Dennis", "State": "CA", "Zip": "90291", "Phone": " LOHara@mednet.ucla.edu"}, "geometry": {"type": "Point", "coordinates": [-118.465627, 33.992885]}}, {"id": "38", "type": "Feature", "properties": {"Program Name": "Community Oriented Harm Reduction Team (COHRT)/PWL", "Street Address 1": "3566 Peralta St", "City": "Oakland", "State": "CA", "Zip": "94611", "Phone": " Ryan Dal Porto - ryandalporto78@gmail.com"}, "geometry": {"type": "Point", "coordinates": [-122.2314218, 37.8285924]}}, {"id": "40", "type": "Feature", "properties": {"Program Name": "County of Santa Cruz Syringe Services Program", "Street Address 1": "1060 Emeline Ave", "City": "Santa Cruz", "State": "CA", "Zip": "95060", "Phone": " Jennifer Herrera"}, "geometry": {"type": "Point", "coordinates": [-122.043111, 36.980779]}}, {"id": "45", "type": "Feature", "properties": {"Program Name": "HEPPAC", "Street Address 1": "5323 Foothill Blvd", "City": "Oakland", "State": "CA", "Zip": "94601", "Phone": " dlopez@casasegura.org"}, "geometry": {"type": "Point", "coordinates": [-122.218326, 37.78045]}}, {"id": "46", "type": "Feature", "properties": {"Program Name": "Homeless Youth Alliance / San Francisco Needle Exchange", "Street Address 1": "558 Clayton Street", "City": "San Francisco", "State": "CA", "Zip": "94117", "Phone": null}, "geometry": {"type": "Point", "coordinates": [-122.4428217, 37.7705462]}}, {"id": "48", "type": "Feature", "properties": {"Program Name": "Inland Empire Harm Reduction", "Street Address 1": "3900 Main St", "City": "Riverside", "State": "CA", "Zip": "92501", "Phone": " raphaela@ieharmreduction.org "}, "geometry": {"type": "Point", "coordinates": [-117.371876, 33.989601]}}, {"id": "49", "type": "Feature", "properties": {"Program Name": "Janus Community Clinic", "Street Address 1": "1000A Emeline Ave", "City": "Santa Cruz", "State": "CA", "Zip": "95060", "Phone": "831-425-0112"}, "geometry": {"type": "Point", "coordinates": [-122.043111, 36.980779]}}, {"id": "54", "type": "Feature", "properties": {"Program Name": "Marin AIDS Project/Spahr Center", "Street Address 1": "3240 Kerner Blvd.", "City": "San Rafael", "State": "CA", "Zip": "94901", "Phone": "415-886-8556"}, "geometry": {"type": "Point", "coordinates": [-122.5142593, 37.9718263]}}, {"id": "55", "type": "Feature", "properties": {"Program Name": "Marin AIDS Project/Spahr Center", "Street Address 1": "40 Shoreline Hwy", "City": "Mill Valley", "State": "CA", "Zip": "94941", "Phone": "415-886-8556"}, "geometry": {"type": "Point", "coordinates": [-122.5309866, 37.8953617]}}, {"id": "56", "type": "Feature", "properties": {"Program Name": "Marin AIDS Project/Spahr Center", "Street Address 1": "1 6th St.", "City": "Point Reyes Station", "State": "CA", "Zip": "94956", "Phone": "415-886-8556"}, "geometry": {"type": "Point", "coordinates": [-122.8098486, 38.0643236]}}, {"id": "57", "type": "Feature", "properties": {"Program Name": "Marin AIDS Project/Spahr Center", "Street Address 1": "16 Ritter St.", "City": "San Rafael", "State": "CA", "Zip": "94901", "Phone": "415-886-8556"}, "geometry": {"type": "Point", "coordinates": [-122.5142593, 37.9718263]}}, {"id": "58", "type": "Feature", "properties": {"Program Name": "Marin AIDS Project/Spahr Center", "Street Address 1": "1682 Novato Blvd Suite 104", "City": "Novato", "State": "CA", "Zip": "94947", "Phone": "415-886-8556"}, "geometry": {"type": "Point", "coordinates": [-122.5816028, 38.0971129]}}, {"id": "59", "type": "Feature", "properties": {"Program Name": "Pacific Pride Foundation", "Street Address 1": "608 Anacapa Street", "City": "Santa Barbara", "State": "CA", "Zip": "93101", "Phone": "805-963-3636"}, "geometry": {"type": "Point", "coordinates": [-119.706225, 34.421689]}}, {"id": "60", "type": "Feature", "properties": {"Program Name": "Pacific Pride Foundation", "Street Address 1": "123 S College", "City": "Santa Maria", "State": "CA", "Zip": "93454", "Phone": "805-963-3636"}, "geometry": {"type": "Point", "coordinates": [-120.41554, 34.953019]}}, {"id": "61", "type": "Feature", "properties": {"Program Name": "Pacific Pride Foundation", "Street Address 1": "E Oak Ave & N G St", "City": "Lompoc", "State": "CA", "Zip": "93436", "Phone": "805-963-3636"}, "geometry": {"type": "Point", "coordinates": [-120.454407, 34.65098]}}, {"id": "62", "type": "Feature", "properties": {"Program Name": "Pacific Pride Foundation", "Street Address 1": "123 S College Dr", "City": "Santa Maria", "State": "CA", "Zip": "93454", "Phone": "805-963-3636"}, "geometry": {"type": "Point", "coordinates": [-120.41554, 34.953019]}}, {"id": "63", "type": "Feature", "properties": {"Program Name": "Pacific Pride Foundation", "Street Address 1": "E Sola St & Anacapa St", "City": "Santa Barbara", "State": "CA", "Zip": "93101", "Phone": "805-963-3636"}, "geometry": {"type": "Point", "coordinates": [-119.706225, 34.421689]}}, {"id": "64", "type": "Feature", "properties": {"Program Name": "Redwoods Rural ", "Street Address 1": "101 W Coast Rd", "City": "Redway", "State": "CA", "Zip": "95560", "Phone": "(707) 923-2783 ext. 336"}, "geometry": {"type": "Point", "coordinates": [-123.823045, 40.120099]}}, {"id": "66", "type": "Feature", "properties": {"Program Name": "Safe Point San Diego / Family Health Centers SD", "Street Address 1": "Imperial Ave & 16th St", "City": "San Diego", "State": "CA", "Zip": "92101", "Phone": "619-993-0216"}, "geometry": {"type": "Point", "coordinates": [-117.162222, 32.718814]}}, {"id": "67", "type": "Feature", "properties": {"Program Name": "Safe Point San Diego / Family Health Centers SD", "Street Address 1": "3795 31st St", "City": "San Diego", "State": "CA", "Zip": "92104", "Phone": "619-993-0216"}, "geometry": {"type": "Point", "coordinates": [-117.1282686, 32.7481476]}}, {"id": "68", "type": "Feature", "properties": {"Program Name": "San Francisco AIDS Foundation SAS (6th Street)", "Street Address 1": "117 6th Street", "City": "San Francisco", "State": "CA", "Zip": "94103", "Phone": "415-487-3000"}, "geometry": {"type": "Point", "coordinates": [-122.4119261, 37.7735531]}}, {"id": "69", "type": "Feature", "properties": {"Program Name": "San Francisco AIDS Foundation SAS Van", "Street Address 1": "1617 Innes Ave", "City": "San Francisco", "State": "CA", "Zip": "94124", "Phone": "415-487-3000"}, "geometry": {"type": "Point", "coordinates": [-122.391974, 37.733544]}}, {"id": "71", "type": "Feature", "properties": {"Program Name": "San Francisco AIDS Foundation SAS Van", "Street Address 1": "3020 16th St", "City": "San Francisco", "State": "CA", "Zip": "94103", "Phone": "415-487-3000"}, "geometry": {"type": "Point", "coordinates": [-122.4119261, 37.7735531]}}, {"id": "72", "type": "Feature", "properties": {"Program Name": "San Francisco AIDS Foundation SAS Van", "Street Address 1": "Van Ness Ave & Hemlock St", "City": "San Francisco", "State": "CA", "Zip": "94109", "Phone": "415-487-3000"}, "geometry": {"type": "Point", "coordinates": [-122.419918, 37.792514]}}, {"id": "73", "type": "Feature", "properties": {"Program Name": "San Francisco AIDS Foundation SAS Van", "Street Address 1": "16th St & Mission St", "City": "San Francisco", "State": "CA", "Zip": "94110", "Phone": "415-487-3000"}, "geometry": {"type": "Point", "coordinates": [-122.4174306, 37.7529881]}}, {"id": "74", "type": "Feature", "properties": {"Program Name": "San Francisco Drug Users' Union", "Street Address 1": "149 Turk Street", "City": "San Francisco", "State": "CA", "Zip": "94102", "Phone": null}, "geometry": {"type": "Point", "coordinates": [-122.416571, 37.781539]}}, {"id": "75", "type": "Feature", "properties": {"Program Name": "San Francisco Needle Exchange (Women only!)", "Street Address 1": "165 Capp Street", "City": "San Francisco", "State": "CA", "Zip": "94110", "Phone": null}, "geometry": {"type": "Point", "coordinates": [-122.4174306, 37.7529881]}}, {"id": "77", "type": "Feature", "properties": {"Program Name": "Santa Clara County Needle Exchange", "Street Address 1": "976 Lenzen Ave", "City": "San Jose", "State": "CA", "Zip": "95128", "Phone": "408-792-3729 or 408-792-5529"}, "geometry": {"type": "Point", "coordinates": [-121.934856, 37.316078]}}, {"id": "78", "type": "Feature", "properties": {"Program Name": "Santa Clara County Needle Exchange", "Street Address 1": "1100 Knox Ave", "City": "San Jose", "State": "CA", "Zip": "95122", "Phone": "408-792-3729 or 408-792-5529"}, "geometry": {"type": "Point", "coordinates": [-121.836329, 37.325309]}}, {"id": "79", "type": "Feature", "properties": {"Program Name": "Santa Clara County Needle Exchange", "Street Address 1": "691 S 2nd St", "City": "San Jose", "State": "CA", "Zip": "95112", "Phone": "408-792-3729 or 408-792-5529"}, "geometry": {"type": "Point", "coordinates": [-121.88587, 37.341407]}}, {"id": "80", "type": "Feature", "properties": {"Program Name": "Santa Clara County Needle Exchange", "Street Address 1": "2101 Alexian Dr", "City": "San Jose", "State": "CA", "Zip": "95116", "Phone": "408-792-3729 or 408-792-5529"}, "geometry": {"type": "Point", "coordinates": [-121.8531482, 37.3537287]}}, {"id": "81", "type": "Feature", "properties": {"Program Name": "Santa Clara County Needle Exchange", "Street Address 1": "660 South Fair Oaks Avenue", "City": "Sunnyvale", "State": "CA", "Zip": "94086", "Phone": "408-792-3729 or 408-792-5529"}, "geometry": {"type": "Point", "coordinates": [-122.0283094, 37.3736934]}}, {"id": "82", "type": "Feature", "properties": {"Program Name": "Santa Clara County Needle Exchange", "Street Address 1": "7475 Camino Arroyo", "City": "Gilroy", "State": "CA", "Zip": "95020", "Phone": "408-792-3729 or 408-792-5529"}, "geometry": {"type": "Point", "coordinates": [-121.5855594, 37.0176035]}}, {"id": "83", "type": "Feature", "properties": {"Program Name": "Santa Clara County Needle Exchange", "Street Address 1": "1900 Little Orchard St", "City": "San Jose", "State": "CA", "Zip": "95125", "Phone": "408-792-3729 or 408-792-5529"}, "geometry": {"type": "Point", "coordinates": [-121.894263, 37.2944339]}}, {"id": "84", "type": "Feature", "properties": {"Program Name": "Santa Cruz Health Center", "Street Address 1": "1080 Emeline Ave", "City": "Santa Cruz", "State": "CA", "Zip": "95060", "Phone": " Jennifer Herrera"}, "geometry": {"type": "Point", "coordinates": [-122.043111, 36.980779]}}, {"id": "86", "type": "Feature", "properties": {"Program Name": "St. James Infirmary", "Street Address 1": "730 Polk Street", "City": "San Francisco", "State": "CA", "Zip": "94109", "Phone": null}, "geometry": {"type": "Point", "coordinates": [-122.419918, 37.792514]}}, {"id": "98", "type": "Feature", "properties": {"Program Name": "The Solace Foundation of Orange County", "Street Address 1": "550 North Golden Circle Drive", "City": "Santa Ana", "State": "CA", "Zip": "92705", "Phone": "(949) 612-5514"}, "geometry": {"type": "Point", "coordinates": [-117.8341913, 33.7537995]}}, {"id": "99", "type": "Feature", "properties": {"Program Name": "TransThrive", "Street Address 1": "730 Polk Street", "City": "San Francisco", "State": "CA", "Zip": "94109", "Phone": null}, "geometry": {"type": "Point", "coordinates": [-122.419918, 37.792514]}}, {"id": "100", "type": "Feature", "properties": {"Program Name": "Tri-city Health/Generations", "Street Address 1": "1999 Mowry Ave", "City": "Fremont", "State": "CA", "Zip": "94538", "Phone": "510-456-3503"}, "geometry": {"type": "Point", "coordinates": [-121.967997, 37.533218]}}, {"id": "101", "type": "Feature", "properties": {"Program Name": "Ventura County Health Department", "Street Address 1": "620 W Harvard Blvd", "City": "Santa Paula", "State": "CA", "Zip": "93060", "Phone": "805-652-6112"}, "geometry": {"type": "Point", "coordinates": [-119.0766823, 34.3540055]}}, {"id": "102", "type": "Feature", "properties": {"Program Name": "Ventura County Health Department", "Street Address 1": "3147 Loma Vista Rd", "City": "Ventura", "State": "CA", "Zip": "93003", "Phone": "805-652-6112"}, "geometry": {"type": "Point", "coordinates": [-119.229763, 34.265231]}}, {"id": "103", "type": "Feature", "properties": {"Program Name": "Ventura County Health Department", "Street Address 1": "621 Richmond Ave", "City": "Oxnard", "State": "CA", "Zip": "93030", "Phone": "805-652-6112"}, "geometry": {"type": "Point", "coordinates": [-119.1783948, 34.2066152]}}, {"id": "104", "type": "Feature", "properties": {"Program Name": "Ventura County Health Department", "Street Address 1": "1227 E Los Angeles Ave", "City": "Ventura", "State": "CA", "Zip": "93004", "Phone": "805-652-6112"}, "geometry": {"type": "Point", "coordinates": [-119.169735, 34.278434]}}, {"id": "105", "type": "Feature", "properties": {"Program Name": "Ventura County Health Department", "Street Address 1": "E Harbor Blvd & Olivas Park Dr", "City": "Ventura", "State": "CA", "Zip": "93001", "Phone": "805-652-6112"}, "geometry": {"type": "Point", "coordinates": [-119.2882666, 34.2860822]}}, {"id": "106", "type": "Feature", "properties": {"Program Name": "Watsonville Health and Dental Clinic", "Street Address 1": "1430 Freedom Blvd", "City": "Santa Cruz", "State": "CA", "Zip": "95076", "Phone": " Jennifer Herrera"}, "geometry": {"type": "Point", "coordinates": [-121.7732423, 36.925625]}}, {"id": "107", "type": "Feature", "properties": {"Program Name": "Watsonville Health Center", "Street Address 1": "1430 Freedom Blvd", "City": "Santa Cruz", "State": "CA", "Zip": "95076", "Phone": " Jennifer Herrera"}, "geometry": {"type": "Point", "coordinates": [-121.7732423, 36.925625]}}, {"id": "109", "type": "Feature", "properties": {"Program Name": "Humboldt County Public Health", "Street Address 1": "908 7th Street", "City": "Eureka", "State": "CA", "Zip": "95501", "Phone": "707-599-6318"}, "geometry": {"type": "Point", "coordinates": [-124.1573557, 40.7904527]}}, {"id": "111", "type": "Feature", "properties": {"Program Name": "Los Angeles Community Health Project/ CHPLA", "Street Address 1": "1151 North Western Ave ", "City": "Los Angeles", "State": "CA", "Zip": "90029", "Phone": "3233805469"}, "geometry": {"type": "Point", "coordinates": [-118.294428, 34.090837]}}, {"id": "115", "type": "Feature", "properties": {"Program Name": "Sierra Harm Reduction Coalition ", "Street Address 1": null, "City": "Placerville", "State": "CA", "Zip": "95667", "Phone": "5302120279"}, "geometry": {"type": "Point", "coordinates": [-120.7972367, 38.7241401]}}, {"id": "122", "type": "Feature", "properties": {"Program Name": "Being Alive - LA", "Street Address 1": "8212 Santa Monica Blvd (behind AHF Pharmacy)", "City": "West Hollywood", "State": "CA", "Zip": "90046", "Phone": "3238744322"}, "geometry": {"type": "Point", "coordinates": [-118.359246, 34.097563]}}, {"id": "128", "type": "Feature", "properties": {"Program Name": "Cloverfield Services Center", "Street Address 1": "1751 Cloverfield Blvd. ", "City": "Santa Monica", "State": "CA", "Zip": "90404", "Phone": "3108831222"}, "geometry": {"type": "Point", "coordinates": [-118.475526, 34.0249176]}}, {"id": "129", "type": "Feature", "properties": {"Program Name": "The Access Center", "Street Address 1": "503 Olympic Blvd. ", "City": "Santa Monica", "State": "CA", "Zip": "90401", "Phone": "3104504050"}, "geometry": {"type": "Point", "coordinates": [-118.493526, 34.017749]}}, {"id": "130", "type": "Feature", "properties": {"Program Name": "Santa Monica C3 (SMC3)", "Street Address 1": "503 Olympic Blvd.", "City": "Santa Monica", "State": "CA", "Zip": "90401", "Phone": null}, "geometry": {"type": "Point", "coordinates": [-118.493526, 34.017749]}}, {"id": "133", "type": "Feature", "properties": {"Program Name": "Homeless Multi-disciplinary Street Team (HMST)", "Street Address 1": "1749 14th Street", "City": "Santa Monica", "State": "CA", "Zip": "90404", "Phone": null}, "geometry": {"type": "Point", "coordinates": [-118.475526, 34.0249176]}}, {"id": "134", "type": "Feature", "properties": {"Program Name": "Malibu Outreach", "Street Address 1": "1447 16th Street", "City": "Santa Monica", "State": "CA", "Zip": "90404", "Phone": null}, "geometry": {"type": "Point", "coordinates": [-118.475526, 34.0249176]}}, {"id": "135", "type": "Feature", "properties": {"Program Name": "Palisades Outreach", "Street Address 1": "1447 16th Street", "City": "Santa Monica", "State": "CA", "Zip": "90404", "Phone": null}, "geometry": {"type": "Point", "coordinates": [-118.475526, 34.0249176]}}, {"id": "136", "type": "Feature", "properties": {"Program Name": "Wellness Center", "Street Address 1": "619 E 5th St ", "City": "Los Angeles", "State": "CA", "Zip": "90013", "Phone": "2135370822"}, "geometry": {"type": "Point", "coordinates": [-118.244965, 34.046011]}}, {"id": "137", "type": "Feature", "properties": {"Program Name": "Public Toilets and Showers (PTS)", "Street Address 1": "526 S San Pedro", "City": "Los Angeles", "State": "CA", "Zip": "90013", "Phone": null}, "geometry": {"type": "Point", "coordinates": [-118.244965, 34.046011]}}, {"id": "138", "type": "Feature", "properties": {"Program Name": "Public Toilets and Showers (PTS)", "Street Address 1": "526 S San Pedro", "City": "Los Angeles", "State": "CA", "Zip": "90013", "Phone": null}, "geometry": {"type": "Point", "coordinates": [-118.244965, 34.046011]}}, {"id": "139", "type": "Feature", "properties": {"Program Name": "E6 ", "Street Address 1": "1625 W Olympic Blvd STE 701", "City": "Los Angeles", "State": "CA", "Zip": "90015", "Phone": null}, "geometry": {"type": "Point", "coordinates": [-118.265102, 34.0392575]}}, {"id": "140", "type": "Feature", "properties": {"Program Name": "E6", "Street Address 1": null, "City": "Los Angeles ", "State": "CA", "Zip": "90028", "Phone": null}, "geometry": {"type": "Point", "coordinates": [-118.328134, 34.100709]}}, {"id": "141", "type": "Feature", "properties": {"Program Name": "Lyon-Martin Community Health Services", "Street Address 1": "1735 Mission St", "City": "San Francisco", "State": "CA", "Zip": "94103", "Phone": "4155657667"}, "geometry": {"type": "Point", "coordinates": [-122.4119261, 37.7735531]}}, {"id": "142", "type": "Feature", "properties": {"Program Name": "Live & Let Live Alano Club ", "Street Address 1": "3847 Park Boulevard ", "City": "San Diego", "State": "CA", "Zip": "92103", "Phone": "6192988008"}, "geometry": {"type": "Point", "coordinates": [-117.162205, 32.745112]}}, {"id": "145", "type": "Feature", "properties": {"Program Name": "Robert Rojas Foundation Worldwide ", "Street Address 1": "40 W. Main Street", "City": "Merced", "State": "CA", "Zip": "95340", "Phone": "2092715850"}, "geometry": {"type": "Point", "coordinates": [-120.457633, 37.316516]}}, {"id": "146", "type": "Feature", "properties": {"Program Name": "The Sidewalk Project", "Street Address 1": "800 McGarry St", "City": "Los Angeles ", "State": "CA", "Zip": "90021", "Phone": "4159666019"}, "geometry": {"type": "Point", "coordinates": [-118.242015, 34.03023]}}, {"id": "150", "type": "Feature", "properties": {"Program Name": "Martinez Harm Reduction Collective", "Street Address 1": "Joe DiMaggio Drive and North Court Street", "City": "Martinez", "State": "CA", "Zip": "94553", "Phone": null}, "geometry": {"type": "Point", "coordinates": [-122.114355, 37.992486]}}, {"id": "151", "type": "Feature", "properties": {"Program Name": "Robert Rojas Foundation Worldwide ", "Street Address 1": "40 W. Main St", "City": "Merced", "State": "CA", "Zip": "95340", "Phone": "2092715850"}, "geometry": {"type": "Point", "coordinates": [-120.457633, 37.316516]}}, {"id": "153", "type": "Feature", "properties": {"Program Name": "Bienestar", "Street Address 1": "6740 N. Marmion Way", "City": "Los Angeles", "State": "CA ", "Zip": "90042", "Phone": "EJALAYER@BIENESTAR.ORG"}, "geometry": {"type": "Point", "coordinates": [-118.193203, 34.112406]}}, {"id": "154", "type": "Feature", "properties": {"Program Name": "Bienestar", "Street Address 1": "527 N. Spring Street", "City": "Los Angeles", "State": "CA ", "Zip": "90012", "Phone": "EJALAYER@BIENESTAR.ORG"}, "geometry": {"type": "Point", "coordinates": [-118.2430792, 34.0562006]}}, {"id": "155", "type": "Feature", "properties": {"Program Name": "Bienestar", "Street Address 1": "2762 Alhambra Ave", "City": "Los Angeles", "State": "CA ", "Zip": "90031", "Phone": "EJALAYER@BIENESTAR.ORG"}, "geometry": {"type": "Point", "coordinates": [-118.2131369, 34.0761022]}}, {"id": "157", "type": "Feature", "properties": {"Program Name": "John Muir Health - Concord Medical Center Emergency Room", "Street Address 1": "2540 East St", "City": "Concord", "State": "CA", "Zip": "94520", "Phone": "925-334-0352"}, "geometry": {"type": "Point", "coordinates": [-122.037867, 37.977882]}}, {"id": "158", "type": "Feature", "properties": {"Program Name": "John Muir Health - Walnut Creek Medical Center Emergency Room", "Street Address 1": "1601 Ygnacio Valley Rd", "City": "Walnut Creet", "State": "CA", "Zip": "94598", "Phone": "925-334-0352"}, "geometry": {"type": "Point", "coordinates": [-122.029726, 37.921008]}}, {"id": "159", "type": "Feature", "properties": {"Program Name": "https://www.facebook.com/WesternCHN", "Street Address 1": "2352 N 7th St", "City": "Grand Junction", "State": "CO", "Zip": "81501", "Phone": "970-243-2437"}, "geometry": {"type": "Point", "coordinates": [-108.551458, 39.079238]}}, {"id": "160", "type": "Feature", "properties": {"Program Name": "Aurora Syringe Access Services / Tri County Health Department Syringe Access Program", "Street Address 1": "1475 Lima St", "City": "Aurora", "State": "CO", "Zip": "80010", "Phone": " arjanes@tchd.org; Lauren Mitchell"}, "geometry": {"type": "Point", "coordinates": [-104.8611596, 39.7373959]}}, {"id": "161", "type": "Feature", "properties": {"Program Name": "Boulder County AIDS Project (BCAP) ", "Street Address 1": "2118 14th St", "City": "Boulder ", "State": "CO", "Zip": "80302", "Phone": "303-444-6121"}, "geometry": {"type": "Point", "coordinates": [-105.2915854, 40.0155124]}}, {"id": "162", "type": "Feature", "properties": {"Program Name": "Denver Colorado Health Network SAP", "Street Address 1": "6260 E Colfax Ave", "City": "Denver", "State": "CO", "Zip": "80220", "Phone": "303-962-5321"}, "geometry": {"type": "Point", "coordinates": [-104.915035, 39.73268]}}, {"id": "164", "type": "Feature", "properties": {"Program Name": "Northern Colorado Health Network SAP", "Street Address 1": "400 Remington St", "City": "Fort Collins", "State": "CO", "Zip": "80524", "Phone": "970-632-2051"}, "geometry": {"type": "Point", "coordinates": [-105.049207, 40.61255]}}, {"id": "166", "type": "Feature", "properties": {"Program Name": "Southern Colorado Harm Reduction Association", "Street Address 1": "1249 East Routt Ave", "City": "Pueblo", "State": "CO", "Zip": "81004", "Phone": " judy.solano@socoharmreduction.org"}, "geometry": {"type": "Point", "coordinates": [-104.639605, 38.215035]}}, {"id": "168", "type": "Feature", "properties": {"Program Name": "Works Program", "Street Address 1": "1735 Public Rd", "City": "Lafayette", "State": "CO", "Zip": "80026", "Phone": "303-413-7522"}, "geometry": {"type": "Point", "coordinates": [-105.097493, 39.99649]}}, {"id": "169", "type": "Feature", "properties": {"Program Name": "Works Program", "Street Address 1": "515 Coffman ", "City": "Longmont", "State": "CO", "Zip": "80501", "Phone": "303-413-7523"}, "geometry": {"type": "Point", "coordinates": [-105.1038071, 40.1712394]}}, {"id": "170", "type": "Feature", "properties": {"Program Name": "Works Program", "Street Address 1": "3180 Airport Rd", "City": "Boulder", "State": "CO", "Zip": "80301", "Phone": "303-413-7524"}, "geometry": {"type": "Point", "coordinates": [-105.2167551, 40.0552951]}}, {"id": "171", "type": "Feature", "properties": {"Program Name": "Works Program", "Street Address 1": "2118 14th St", "City": "Boulder", "State": "CO", "Zip": "80302", "Phone": "303-413-7525"}, "geometry": {"type": "Point", "coordinates": [-105.2915854, 40.0155124]}}, {"id": "172", "type": "Feature", "properties": {"Program Name": "Works Program", "Street Address 1": "3482 Broadway St", "City": "Boulder", "State": "CO", "Zip": "80304", "Phone": "303-413-7526"}, "geometry": {"type": "Point", "coordinates": [-105.2782251, 40.0390754]}}, {"id": "174", "type": "Feature", "properties": {"Program Name": "San Luis Valley Health Access Risk Reduction Project (SHARRP)", "Street Address 1": "1123 West Ave.", "City": "Alamosa", "State": "CO", "Zip": "81101", "Phone": "7195894977"}, "geometry": {"type": "Point", "coordinates": [-105.8728626, 37.4709282]}}, {"id": "176", "type": "Feature", "properties": {"Program Name": "Vivent health", "Street Address 1": null, "City": "Pueblo", "State": "CO", "Zip": "81004", "Phone": "7197998776"}, "geometry": {"type": "Point", "coordinates": [-104.639605, 38.215035]}}, {"id": "181", "type": "Feature", "properties": {"Program Name": "High Rockies Harm Reduction", "Street Address 1": null, "City": "Glenwood Springs", "State": "CO", "Zip": "81601", "Phone": "9706184194"}, "geometry": {"type": "Point", "coordinates": [-107.321221, 39.5268499]}}, {"id": "182", "type": "Feature", "properties": {"Program Name": "Advantage Treatment Centers (ATC)", "Street Address 1": "1230 N. Grand Ave", "City": "Montrose", "State": "CO", "Zip": "81401", "Phone": "9705714517"}, "geometry": {"type": "Point", "coordinates": [-107.861307, 38.483113]}}, {"id": "184", "type": "Feature", "properties": {"Program Name": "Advantage Treatment Centers", "Street Address 1": "219 E Railroad Ave", "City": "Fort Morgan", "State": "CO", "Zip": "80701", "Phone": "9708672086"}, "geometry": {"type": "Point", "coordinates": [-103.7911685, 40.2321802]}}, {"id": "186", "type": "Feature", "properties": {"Program Name": "Advantage Treatment Center", "Street Address 1": "59 W. 6th Street", "City": "Craig ", "State": "CO", "Zip": "81625", "Phone": "9708240311"}, "geometry": {"type": "Point", "coordinates": [-107.5546675, 40.544266]}}, {"id": "217", "type": "Feature", "properties": {"Program Name": "Brandywine Counseling and Community Services SSP", "Street Address 1": "2713 Lancaster Ave", "City": "Wilmington", "State": "DE ", "Zip": "19805", "Phone": "302-656-2348"}, "geometry": {"type": "Point", "coordinates": [-75.5830876, 39.7407416]}}, {"id": "218", "type": "Feature", "properties": {"Program Name": "Brandywine Counseling and Community Services SSP", "Street Address 1": "769 E Masten Circle", "City": "Milford", "State": "DE ", "Zip": "19963", "Phone": "302-656-2348"}, "geometry": {"type": "Point", "coordinates": [-75.416479, 38.930345]}}, {"id": "219", "type": "Feature", "properties": {"Program Name": "Brandywine Counseling and Community Services SSP", "Street Address 1": "DE-9 & Memorial Dr", "City": "New Castle", "State": "DE ", "Zip": "19720", "Phone": "302-656-2348"}, "geometry": {"type": "Point", "coordinates": [-75.5885564, 39.6701495]}}, {"id": "220", "type": "Feature", "properties": {"Program Name": "Brandywine Counseling and Community Services SSP", "Street Address 1": "100 McMullen Ave", "City": "New Castle", "State": "DE ", "Zip": "19720", "Phone": "302-656-2348"}, "geometry": {"type": "Point", "coordinates": [-75.5885564, 39.6701495]}}, {"id": "221", "type": "Feature", "properties": {"Program Name": "Brandywine Counseling and Community Services SSP", "Street Address 1": "599 Townsend St", "City": "Wilmington", "State": "DE ", "Zip": "19801", "Phone": "302-656-2348"}, "geometry": {"type": "Point", "coordinates": [-75.5496808, 39.7411554]}}, {"id": "222", "type": "Feature", "properties": {"Program Name": "Brandywine Counseling and Community Services SSP", "Street Address 1": "2201 N Market St", "City": "Wilmington", "State": "DE ", "Zip": "19802", "Phone": "302-656-2348"}, "geometry": {"type": "Point", "coordinates": [-75.532916, 39.757665]}}, {"id": "223", "type": "Feature", "properties": {"Program Name": "Brandywine Counseling and Community Services SSP", "Street Address 1": "299 Delamore Pl", "City": "Wilmington", "State": "DE ", "Zip": "19805", "Phone": "302-656-2348"}, "geometry": {"type": "Point", "coordinates": [-75.5830876, 39.7407416]}}, {"id": "224", "type": "Feature", "properties": {"Program Name": "Brandywine Counseling and Community Services SSP", "Street Address 1": "599 N Madison St", "City": "Wilmington", "State": "DE ", "Zip": "19801", "Phone": "302-656-2348"}, "geometry": {"type": "Point", "coordinates": [-75.5496808, 39.7411554]}}, {"id": "225", "type": "Feature", "properties": {"Program Name": "Brandywine Counseling and Community Services SSP", "Street Address 1": "750 S Van Buren St", "City": "Wilmington", "State": "DE ", "Zip": "19805", "Phone": "302-656-2348"}, "geometry": {"type": "Point", "coordinates": [-75.5830876, 39.7407416]}}, {"id": "226", "type": "Feature", "properties": {"Program Name": "Brandywine Counseling and Community Services SSP", "Street Address 1": "500 N Harrison St", "City": "Wilmington", "State": "DE ", "Zip": "19805", "Phone": "302-656-2348"}, "geometry": {"type": "Point", "coordinates": [-75.5830876, 39.7407416]}}, {"id": "227", "type": "Feature", "properties": {"Program Name": "Brandywine Counseling and Community Services SSP", "Street Address 1": "3000 N Church St", "City": "Wilmington", "State": "DE ", "Zip": "19802", "Phone": "302-656-2348"}, "geometry": {"type": "Point", "coordinates": [-75.532916, 39.757665]}}, {"id": "228", "type": "Feature", "properties": {"Program Name": "Brandywine Counseling and Community Services SSP", "Street Address 1": "99 Colby Ave", "City": "Claymont", "State": "DE ", "Zip": "19703", "Phone": "302-656-2348"}, "geometry": {"type": "Point", "coordinates": [-75.4600633, 39.8067234]}}, {"id": "229", "type": "Feature", "properties": {"Program Name": "Brandywine Counseling and Community Services SSP", "Street Address 1": "301 N Church St", "City": "Wilmington", "State": "DE ", "Zip": "19801", "Phone": "302-656-2348"}, "geometry": {"type": "Point", "coordinates": [-75.5496808, 39.7411554]}}, {"id": "230", "type": "Feature", "properties": {"Program Name": "Brandywine Counseling and Community Services SSP", "Street Address 1": "24 Brookhill Dr", "City": "Newark", "State": "DE ", "Zip": "19702", "Phone": "302-656-2348"}, "geometry": {"type": "Point", "coordinates": [-75.71427, 39.633697]}}, {"id": "231", "type": "Feature", "properties": {"Program Name": "Brandywine Counseling and Community Services SSP", "Street Address 1": "E 8th St & N Church St", "City": "Wilmington", "State": "DE ", "Zip": "19801", "Phone": "302-656-2348"}, "geometry": {"type": "Point", "coordinates": [-75.5496808, 39.7411554]}}, {"id": "232", "type": "Feature", "properties": {"Program Name": "Brandywine Counseling and Community Services SSP", "Street Address 1": "1400 Northeast Blvd", "City": "Wilmington", "State": "DE ", "Zip": "19802", "Phone": "302-656-2348"}, "geometry": {"type": "Point", "coordinates": [-75.532916, 39.757665]}}, {"id": "233", "type": "Feature", "properties": {"Program Name": "Brandywine Counseling and Community Services SSP", "Street Address 1": "Clark St & Rd 350", "City": "Harrington", "State": "DE ", "Zip": "19952", "Phone": "302-656-2348"}, "geometry": {"type": "Point", "coordinates": [-75.6098327, 38.9076149]}}, {"id": "234", "type": "Feature", "properties": {"Program Name": "Brandywine Counseling and Community Services SSP", "Street Address 1": "547 N Bradford St", "City": "Seaford", "State": "DE ", "Zip": "19973", "Phone": "302-656-2348"}, "geometry": {"type": "Point", "coordinates": [-75.6049266, 38.6471198]}}, {"id": "235", "type": "Feature", "properties": {"Program Name": "Brandywine Counseling and Community Services SSP", "Street Address 1": "200 W Market St", "City": "Laurel", "State": "DE ", "Zip": "19956", "Phone": "302-656-2348"}, "geometry": {"type": "Point", "coordinates": [-75.568505, 38.549584]}}, {"id": "236", "type": "Feature", "properties": {"Program Name": "Brandywine Counseling and Community Services SSP", "Street Address 1": "20576 Coastal Hwy", "City": "Rehoboth Beach", "State": "DE ", "Zip": "19971", "Phone": "302-656-2348"}, "geometry": {"type": "Point", "coordinates": [-75.104691, 38.714752]}}, {"id": "237", "type": "Feature", "properties": {"Program Name": "Brandywine Counseling and Community Services SSP", "Street Address 1": "1114 S Dupont Hwy", "City": "Dover", "State": "DE ", "Zip": "19901", "Phone": "302-656-2348"}, "geometry": {"type": "Point", "coordinates": [-75.518714, 39.167085]}}, {"id": "238", "type": "Feature", "properties": {"Program Name": "Brandywine Counseling and Community Services SSP", "Street Address 1": "684 Forest St", "City": "Dover", "State": "DE ", "Zip": "19904", "Phone": "302-656-2348"}, "geometry": {"type": "Point", "coordinates": [-75.563171, 39.173343]}}, {"id": "239", "type": "Feature", "properties": {"Program Name": "Brandywine Counseling and Community Services SSP", "Street Address 1": "621 W Division St", "City": "Dover", "State": "DE ", "Zip": "19904", "Phone": "302-656-2348"}, "geometry": {"type": "Point", "coordinates": [-75.563171, 39.173343]}}, {"id": "240", "type": "Feature", "properties": {"Program Name": "Brandywine Counseling and Community Services SSP", "Street Address 1": "211 W Division St", "City": "Dover", "State": "DE ", "Zip": "19904", "Phone": "302-656-2348"}, "geometry": {"type": "Point", "coordinates": [-75.563171, 39.173343]}}, {"id": "241", "type": "Feature", "properties": {"Program Name": "Brandywine Counseling and Community Services SSP", "Street Address 1": "Division Ave & Old Landing Rd", "City": "Millsboro", "State": "DE ", "Zip": "19966", "Phone": "302-656-2348"}, "geometry": {"type": "Point", "coordinates": [-75.22653, 38.6036299]}}, {"id": "242", "type": "Feature", "properties": {"Program Name": "Brandywine Counseling and Community Services SSP", "Street Address 1": "20707 Dupont Blvd", "City": "Georgetown", "State": "DE ", "Zip": "19947", "Phone": "302-656-2348"}, "geometry": {"type": "Point", "coordinates": [-75.386562, 38.68034]}}, {"id": "243", "type": "Feature", "properties": {"Program Name": "Brandywine Counseling and Community Services SSP", "Street Address 1": "W Glenwood Ave & N High St Ext", "City": "Smyrna", "State": "DE ", "Zip": "19977", "Phone": "302-656-2348"}, "geometry": {"type": "Point", "coordinates": [-75.5974991, 39.2813512]}}, {"id": "248", "type": "Feature", "properties": {"Program Name": "Saint Augustine Harm Reduction Collective ", "Street Address 1": null, "City": "Saint Augustine ", "State": "FL", "Zip": "32084", "Phone": "9048083348"}, "geometry": {"type": "Point", "coordinates": [-81.334891, 29.902861]}}, {"id": "249", "type": "Feature", "properties": {"Program Name": "Picking Up The Pieces", "Street Address 1": "1012 East Silver Springs Boulevard", "City": "Ocala", "State": "FL", "Zip": "34470", "Phone": "3524154616"}, "geometry": {"type": "Point", "coordinates": [-82.093704, 29.197783]}}, {"id": "253", "type": "Feature", "properties": {"Program Name": "DISC Village Adult Services", "Street Address 1": "1000 West Tharpe Street Suite 14", "City": "Tallahassee", "State": "FL", "Zip": "32304", "Phone": "8505610717"}, "geometry": {"type": "Point", "coordinates": [-84.3275979, 30.444669]}}, {"id": "265", "type": "Feature", "properties": {"Program Name": "DISC Village Adult Services", "Street Address 1": "1012 S Jefferson Street", "City": "Perry", "State": "FL", "Zip": "32348", "Phone": "8505561077"}, "geometry": {"type": "Point", "coordinates": [-83.5895482, 30.0033149]}}, {"id": "266", "type": "Feature", "properties": {"Program Name": "DISC VILLAGE ADULT SERVICES", "Street Address 1": "85 HIGH DRIVE", "City": "CRAWFORDVILLE", "State": "FL", "Zip": "32327", "Phone": null}, "geometry": {"type": "Point", "coordinates": [-84.3201736, 30.2085355]}}, {"id": "267", "type": "Feature", "properties": {"Program Name": "Central Florida Treatment Centers", "Street Address 1": "2198 Harris Avenue NE", "City": "Palm Bay", "State": "FL", "Zip": "32905", "Phone": "3219519750"}, "geometry": {"type": "Point", "coordinates": [-80.6056102, 28.0286604]}}, {"id": "269", "type": "Feature", "properties": {"Program Name": "First Step Shelter", "Street Address 1": "3889 W. International Speedway", "City": "Daytona Beach", "State": "FL", "Zip": "32124", "Phone": "9546295936"}, "geometry": {"type": "Point", "coordinates": [-81.1138922, 29.1939271]}}, {"id": "271", "type": "Feature", "properties": {"Program Name": "Chautauqua Healthcare Services of Lakeview Center", "Street Address 1": "3686 US Hwy 331 S", "City": "Defuniak Springs", "State": "FL", "Zip": "32435", "Phone": "18508928045"}, "geometry": {"type": "Point", "coordinates": [-86.117893, 30.703175]}}, {"id": "272", "type": "Feature", "properties": {"Program Name": "Lakeside Clinic", "Street Address 1": "13700 58th St North Bldg 2 Suite 209-210", "City": "Clearwater ", "State": "FL", "Zip": "33760", "Phone": "7272233545"}, "geometry": {"type": "Point", "coordinates": [-82.715219, 27.912754]}}, {"id": "274", "type": "Feature", "properties": {"Program Name": "Lotus Behavioral Health", "Street Address 1": "1030 Spring Villa Point", "City": "Winter Springs", "State": "FL", "Zip": "32708", "Phone": "3212048010"}, "geometry": {"type": "Point", "coordinates": [-81.2720312, 28.6850519]}}, {"id": "275", "type": "Feature", "properties": {"Program Name": "Peace River Center ", "Street Address 1": "1835 Gilmore Ave.", "City": "Lakeland", "State": "FL", "Zip": "33805", "Phone": "8635190575"}, "geometry": {"type": "Point", "coordinates": [-81.9532935, 28.0779458]}}, {"id": "278", "type": "Feature", "properties": {"Program Name": "Groups Recover Together (Inverness)", "Street Address 1": "2216 Highway West 44", "City": "Inverness", "State": "FL", "Zip": "34452", "Phone": "3525654218"}, "geometry": {"type": "Point", "coordinates": [-82.343465, 28.806096]}}, {"id": "279", "type": "Feature", "properties": {"Program Name": "Groups Recover Together (Port Richey)", "Street Address 1": "8224 Washington St.", "City": "Port Richey", "State": "FL", "Zip": "34668", "Phone": "7273351290"}, "geometry": {"type": "Point", "coordinates": [-82.697272, 28.3043938]}}, {"id": "281", "type": "Feature", "properties": {"Program Name": "Justin's Hope Narcan Project with Shining Light Peer Services", "Street Address 1": "3701-1 Crill Ave", "City": "Palatka", "State": "FL", "Zip": "32177", "Phone": "3865302575"}, "geometry": {"type": "Point", "coordinates": [-81.660235, 29.651443]}}, {"id": "284", "type": "Feature", "properties": {"Program Name": "DISC Village ", "Street Address 1": "150 10th Street", "City": "Apalachicola", "State": "FL", "Zip": "32320", "Phone": "8505285055"}, "geometry": {"type": "Point", "coordinates": [-85.00228, 29.72759]}}, {"id": "285", "type": "Feature", "properties": {"Program Name": "Disc Village // Rural Substance Response Project", "Street Address 1": "1476 SW Main St.", "City": "Greenville", "State": "FL", "Zip": "32331", "Phone": "8505101669"}, "geometry": {"type": "Point", "coordinates": [-83.633614, 30.480412]}}, {"id": "286", "type": "Feature", "properties": {"Program Name": "Atlanta Harm Reduction Coalition", "Street Address 1": "1231 Joseph E Boone Blvd", "City": "Atlanta", "State": "GA", "Zip": "30314", "Phone": "404-817-9994"}, "geometry": {"type": "Point", "coordinates": [-84.429562, 33.75584]}}, {"id": "287", "type": "Feature", "properties": {"Program Name": "Georgia Overdose Prevention (GOP)", "Street Address 1": "216 Peachtree St NE", "City": "Atlanta", "State": "GA", "Zip": "30303", "Phone": null}, "geometry": {"type": "Point", "coordinates": [-84.389867, 33.756242]}}, {"id": "293", "type": "Feature", "properties": {"Program Name": "Little 5 points pharmacy", "Street Address 1": null, "City": "Atlanta ", "State": "GA", "Zip": "30307", "Phone": "4045244466"}, "geometry": {"type": "Point", "coordinates": [-84.341679, 33.767076]}}, {"id": "295", "type": "Feature", "properties": {"Program Name": "Hawai'i Health & Harm Reduction Center (formerly CHOW Project)", "Street Address 1": "200 S. High St", "City": "Wailuku", "State": "HI", "Zip": "96793", "Phone": "808-853-3292"}, "geometry": {"type": "Point", "coordinates": [-156.5012559, 20.8889745]}}, {"id": "296", "type": "Feature", "properties": {"Program Name": "Hawai'i Health & Harm Reduction Center (formerly CHOW Project)", "Street Address 1": "4396 Rice Street", "City": "L\u012bhu\u02bbe", "State": "HI", "Zip": "96766", "Phone": "808-853-3292"}, "geometry": {"type": "Point", "coordinates": [-159.368852, 21.975003]}}, {"id": "297", "type": "Feature", "properties": {"Program Name": "Hawai'i Health & Harm Reduction Center (formerly CHOW Project)", "Street Address 1": "25 Aupuni St", "City": "Hilo", "State": "HI", "Zip": "96720", "Phone": "808-853-3292"}, "geometry": {"type": "Point", "coordinates": [-155.0857327, 19.7038782]}}, {"id": "298", "type": "Feature", "properties": {"Program Name": "Hawai'i Health & Harm Reduction Center (formerly CHOW Project)", "Street Address 1": "75-5706 Hanama Pl", "City": "Kailua-Kona", "State": "HI", "Zip": "96740", "Phone": "808-853-3292"}, "geometry": {"type": "Point", "coordinates": [-155.9821791, 19.6729573]}}, {"id": "300", "type": "Feature", "properties": {"Program Name": "Iowa Harm Reduction Coalition", "Street Address 1": "50 W 13th St", "City": "Dubuque", "State": "IA", "Zip": "52001", "Phone": " pinky@iowaharmreductioncoalition.org "}, "geometry": {"type": "Point", "coordinates": [-90.688146, 42.513791]}}, {"id": "301", "type": "Feature", "properties": {"Program Name": "Iowa Harm Reduction Coalition", "Street Address 1": "410 E Washington St", "City": "Iowa City", "State": "IA", "Zip": "52240", "Phone": " abby@iowaharmreductioncoalition.org."}, "geometry": {"type": "Point", "coordinates": [-91.5169025, 41.6474802]}}, {"id": "302", "type": "Feature", "properties": {"Program Name": "Iowa Harm Reduction Coalition", "Street Address 1": "1221 Center St. ", "City": "Des Moines", "State": "IA", "Zip": "50309", "Phone": " deborah@iowaharmreductioncoalition.org"}, "geometry": {"type": "Point", "coordinates": [-93.6226683, 41.5863009]}}, {"id": "303", "type": "Feature", "properties": {"Program Name": "Quad Cities Harm Reduction", "Street Address 1": "1411 Brady Street", "City": "Davenport", "State": "IA", "Zip": "52803", "Phone": " kimdoc24@gmail.com"}, "geometry": {"type": "Point", "coordinates": [-90.561163, 41.538991]}}, {"id": "305", "type": "Feature", "properties": {"Program Name": "Allies Linked for the Prevention of HIV and AIDS (a.l.p.h.a. )", "Street Address 1": "537 W Bannock Street", "City": "Boise", "State": "ID", "Zip": "83702", "Phone": "2084247799"}, "geometry": {"type": "Point", "coordinates": [-116.207032, 43.628828]}}, {"id": "306", "type": "Feature", "properties": {"Program Name": "North Idaho AIDS Coalition (NIAC) ", "Street Address 1": "2201 N. Government Way", "City": "Coeur d' Alene", "State": "ID", "Zip": "83814", "Phone": "2086651448"}, "geometry": {"type": "Point", "coordinates": [-116.7855848, 47.6740118]}}, {"id": "307", "type": "Feature", "properties": {"Program Name": "Chicago Recovery Alliance", "Street Address 1": "3110 W Taylor St", "City": "Chicago", "State": "IL", "Zip": "60612", "Phone": " mdoesimkins@gmail.com"}, "geometry": {"type": "Point", "coordinates": [-87.6864906, 41.8794049]}}, {"id": "309", "type": "Feature", "properties": {"Program Name": "Live 4Lali", "Street Address 1": "3255 N Arlington Heights Rd.", "City": "Arlington Heights", "State": "IL", "Zip": "60004", "Phone": "847-636-7162"}, "geometry": {"type": "Point", "coordinates": [-87.9800924, 42.1124969]}}, {"id": "310", "type": "Feature", "properties": {"Program Name": "Point2Point Kane County", "Street Address 1": "44 East Downer Place", "City": "Aurora", "State": "IL", "Zip": "60505", "Phone": "630-492-1454"}, "geometry": {"type": "Point", "coordinates": [-88.2997349, 41.7732302]}}, {"id": "311", "type": "Feature", "properties": {"Program Name": "Fifth Street Renaissance ", "Street Address 1": "1315 North 5th Street ", "City": "Springfield ", "State": "IL", "Zip": "62702", "Phone": "2176385044"}, "geometry": {"type": "Point", "coordinates": [-89.6505954, 39.8152165]}}, {"id": "319", "type": "Feature", "properties": {"Program Name": "Springfield Harm Reduction Initiative (SHaRI)", "Street Address 1": "109 E. Lawrence Ave. ", "City": "Springfield", "State": "IL", "Zip": "62704", "Phone": "2175285253"}, "geometry": {"type": "Point", "coordinates": [-89.680669, 39.782296]}}, {"id": "323", "type": "Feature", "properties": {"Program Name": "Egyptian Health Department ", "Street Address 1": "1412 US Hwy 45 North", "City": "Eldorado", "State": "IL", "Zip": "62930", "Phone": "6182941086"}, "geometry": {"type": "Point", "coordinates": [-88.43875, 37.8161819]}}, {"id": "324", "type": "Feature", "properties": {"Program Name": "Sangamon County HD Free Naloxone", "Street Address 1": "2833 South Grand Avenue East", "City": "Springfield", "State": "IL", "Zip": "62703", "Phone": "2175353100"}, "geometry": {"type": "Point", "coordinates": [-89.6314795, 39.7768905]}}, {"id": "326", "type": "Feature", "properties": {"Program Name": "Almost Home Chicago ", "Street Address 1": "8757 S Kolmar ", "City": "Hometown", "State": "IL", "Zip": "60456", "Phone": "7087892911"}, "geometry": {"type": "Point", "coordinates": [-87.7370197, 41.7312016]}}, {"id": "327", "type": "Feature", "properties": {"Program Name": "Chestnut Health Systems", "Street Address 1": "50 Northgate Industrial Drive", "City": "Granite City", "State": "IL", "Zip": "62040", "Phone": "6189756614"}, "geometry": {"type": "Point", "coordinates": [-90.1132831, 38.7266808]}}, {"id": "328", "type": "Feature", "properties": {"Program Name": "Transforming Educating & Empowering Children and Humanity (dba TEECH)", "Street Address 1": "1750 W 103rd Street", "City": "Chicago ", "State": "IL", "Zip": "60643", "Phone": "2244063798"}, "geometry": {"type": "Point", "coordinates": [-87.6616562, 41.6944989]}}, {"id": "329", "type": "Feature", "properties": {"Program Name": "Got Naloxone?", "Street Address 1": "302 N Chicago Street ", "City": "Joliet", "State": "IL", "Zip": "60432", "Phone": "7082055782"}, "geometry": {"type": "Point", "coordinates": [-88.0514262, 41.535239]}}, {"id": "331", "type": "Feature", "properties": {"Program Name": "Lutheran Social Services of Illinoins Behavioral Health ", "Street Address 1": "1901  1st avenue ", "City": "sterling ", "State": "IL", "Zip": "61081", "Phone": "3865479508"}, "geometry": {"type": "Point", "coordinates": [-89.6985396, 41.8125094]}}, {"id": "334", "type": "Feature", "properties": {"Program Name": "Transforming Educating & Empowering Children and Humanity (dba TEECH)", "Street Address 1": "1750 W 103rd Street", "City": "Chicago ", "State": "IL", "Zip": "60643", "Phone": "2244063798"}, "geometry": {"type": "Point", "coordinates": [-87.6616562, 41.6944989]}}, {"id": "336", "type": "Feature", "properties": {"Program Name": "The Porchlight Collective SAP", "Street Address 1": "2424 Henderson Street", "City": "Alton", "State": "IL", "Zip": "62002", "Phone": "6188822452"}, "geometry": {"type": "Point", "coordinates": [-90.1537641, 38.9165332]}}, {"id": "337", "type": "Feature", "properties": {"Program Name": "Clark County Indiana Syringe Needle Exchange Program", "Street Address 1": "1301 Akers Avenue", "City": "Jeffersonville", "State": "IN", "Zip": "47130", "Phone": "812-288-2706"}, "geometry": {"type": "Point", "coordinates": [-85.720293, 38.308601]}}, {"id": "338", "type": "Feature", "properties": {"Program Name": "Gateway to Hope Syringe Services Program", "Street Address 1": "629 N 6th St", "City": "Lafayette", "State": "IN", "Zip": "47901", "Phone": "765-423-9221"}, "geometry": {"type": "Point", "coordinates": [-86.889064, 40.419144]}}, {"id": "342", "type": "Feature", "properties": {"Program Name": "Madison County Health Department", "Street Address 1": "206 E 9th St", "City": "Anderson", "State": "IN", "Zip": "46016", "Phone": "(765) 641-9524"}, "geometry": {"type": "Point", "coordinates": [-85.6836222, 40.0968095]}}, {"id": "343", "type": "Feature", "properties": {"Program Name": "Monroe County Syringe Services Program", "Street Address 1": "119 W 7th St", "City": "Bloomington", "State": "IN", "Zip": "47404", "Phone": "812) 349-2722"}, "geometry": {"type": "Point", "coordinates": [-86.5547674, 39.1942793]}}, {"id": "344", "type": "Feature", "properties": {"Program Name": "Overdose Lifeline Inc", "Street Address 1": "1100 W 42nd St", "City": "Indianapolis", "State": "IN", "Zip": "46208", "Phone": " Justin Phillips (she/her/hers): jude@overdoselifeline.org"}, "geometry": {"type": "Point", "coordinates": [-86.1656467, 39.8269848]}}, {"id": "345", "type": "Feature", "properties": {"Program Name": "Safe Syringe Access and Support Program/Marion County Public Health", "Street Address 1": "2802 Lafayette Rd", "City": "Indianapolis", "State": "IN", "Zip": "46221", "Phone": " Program Manager"}, "geometry": {"type": "Point", "coordinates": [-86.238601, 39.704399]}}, {"id": "346", "type": "Feature", "properties": {"Program Name": "Safe Syringe Access and Support Program/Marion County Public Health", "Street Address 1": "1416 E Washington St", "City": "Indianapolis", "State": "IN", "Zip": "46201", "Phone": " Program Manager"}, "geometry": {"type": "Point", "coordinates": [-86.106263, 39.773083]}}, {"id": "347", "type": "Feature", "properties": {"Program Name": "Safe Syringe Access and Support Program/Marion County Public Health", "Street Address 1": "1035 N Olney St", "City": "Indianapolis", "State": "IN", "Zip": "46201", "Phone": " Program Manager"}, "geometry": {"type": "Point", "coordinates": [-86.106263, 39.773083]}}, {"id": "350", "type": "Feature", "properties": {"Program Name": "The Artistic Recovery/Three20 Recovery Community ", "Street Address 1": "320 S Calumet", "City": "Chesterton", "State": "IN", "Zip": "46304", "Phone": "2192386840"}, "geometry": {"type": "Point", "coordinates": [-87.0674953, 41.6093565]}}, {"id": "359", "type": "Feature", "properties": {"Program Name": "Integrative Wellness", "Street Address 1": "407 E Market St", "City": "Crawfordsville", "State": "IN", "Zip": "47933", "Phone": "7652593457"}, "geometry": {"type": "Point", "coordinates": [-86.901444, 40.037421]}}, {"id": "360", "type": "Feature", "properties": {"Program Name": "Allen County Syringe Services Program", "Street Address 1": "4817 New Haven Ave. ", "City": "Fort Wayne", "State": "IN", "Zip": "46803", "Phone": "2604498742"}, "geometry": {"type": "Point", "coordinates": [-85.09987, 41.068673]}}, {"id": "361", "type": "Feature", "properties": {"Program Name": "ShipHappens: a zero barrier access point to Naloxone", "Street Address 1": "2914 Mayor Dr. ", "City": "Kokomo", "State": "IN", "Zip": "46902", "Phone": null}, "geometry": {"type": "Point", "coordinates": [-86.127117, 40.447238]}}, {"id": "362", "type": "Feature", "properties": {"Program Name": "Beyond the Pod", "Street Address 1": "25 West Main Street", "City": "Austin", "State": "IN", "Zip": "47102", "Phone": "8128206245"}, "geometry": {"type": "Point", "coordinates": [-85.802481, 38.753691]}}, {"id": "363", "type": "Feature", "properties": {"Program Name": "1 Love Harm Reduction ", "Street Address 1": "1329 Palmer Drive ", "City": "West Lafayette ", "State": "IN", "Zip": "47906", "Phone": "7654138595"}, "geometry": {"type": "Point", "coordinates": [-86.939905, 40.450285]}}, {"id": "364", "type": "Feature", "properties": {"Program Name": "Indiana Recovery Alliance--Evansville ", "Street Address 1": "1 NW Martin L King Jr Bl", "City": "Evansville", "State": "IN ", "Zip": "47708", "Phone": " john@indianarecoveryalliance.org "}, "geometry": {"type": "Point", "coordinates": [-87.571541, 37.9739259]}}, {"id": "366", "type": "Feature", "properties": {"Program Name": "Adair County Syringe Exchange Program/Lake Cumberland District Health Department", "Street Address 1": "801 Westlake Dr", "City": "Columbia", "State": "KY", "Zip": "42728", "Phone": "270-384-2286 // 800-928-4416"}, "geometry": {"type": "Point", "coordinates": [-85.2988126, 37.1059375]}}, {"id": "368", "type": "Feature", "properties": {"Program Name": "Harrison County Needle Exchange Program/WEDCO District ", "Street Address 1": "362 Oddville Ave", "City": "Cynthiana", "State": "KY", "Zip": "41031", "Phone": "859-300-2727"}, "geometry": {"type": "Point", "coordinates": [-84.2856189, 38.4168117]}}, {"id": "369", "type": "Feature", "properties": {"Program Name": "Kentucky Harm Reduction Coalition", "Street Address 1": "963 S 2nd St", "City": "Louisville", "State": "KY", "Zip": "40253", "Phone": " dbdcamera55@gmail.com"}, "geometry": {"type": "Point", "coordinates": [-85.530227, 38.24581]}}, {"id": "382", "type": "Feature", "properties": {"Program Name": "McCreary County Syringe Exchange Program/Lake Cumberland District Health Department", "Street Address 1": "119 Medical Plaza Lane", "City": "Whitley City", "State": "KY", "Zip": "42653", "Phone": "606-376-2412"}, "geometry": {"type": "Point", "coordinates": [-84.4810766, 36.7451501]}}, {"id": "383", "type": "Feature", "properties": {"Program Name": "Pendleton County Health Center/Three Rivers District", "Street Address 1": "329 Hwy 330 W", "City": "Falmouth", "State": "KY", "Zip": "41040", "Phone": "859-654-6985"}, "geometry": {"type": "Point", "coordinates": [-84.3195524, 38.6547562]}}, {"id": "384", "type": "Feature", "properties": {"Program Name": "Pendleton County Health Center/Three Rivers District", "Street Address 1": "1005 Highway 22 East", "City": "Owenton", "State": "KY", "Zip": "40359", "Phone": null}, "geometry": {"type": "Point", "coordinates": [-84.8243877, 38.5093486]}}, {"id": "385", "type": "Feature", "properties": {"Program Name": "Pulaski County Syringe Exchange Program", "Street Address 1": "45 Roberts Street", "City": "Somerset", "State": "KY", "Zip": "42501", "Phone": " Nursing Supervisor; Laura Woodrum"}, "geometry": {"type": "Point", "coordinates": [-84.5618122, 37.0563899]}}, {"id": "386", "type": "Feature", "properties": {"Program Name": "Russell County Syringe Exchange Program/Lake Cumberland District Health Department", "Street Address 1": "211 Fruit of the Loom Drive", "City": "Jamestown", "State": "KY", "Zip": "42629", "Phone": "270-343-2181//800-928-4416"}, "geometry": {"type": "Point", "coordinates": [-85.1106701, 36.9518333]}}, {"id": "387", "type": "Feature", "properties": {"Program Name": "Scott County Needle Exchange Program", "Street Address 1": "300 E Washington St", "City": "Georgetown", "State": "KY", "Zip": "40324", "Phone": "859-300-2727"}, "geometry": {"type": "Point", "coordinates": [-84.556329, 38.218833]}}, {"id": "388", "type": "Feature", "properties": {"Program Name": "Taylor County Syringe Exchange Program/Lake Cumberland District Health Department", "Street Address 1": "1880 North Bypass Rd", "City": "Campbellsville", "State": "KY", "Zip": "42718", "Phone": "270-465-4191//800-928-4416"}, "geometry": {"type": "Point", "coordinates": [-85.3474577, 37.3528077]}}, {"id": "390", "type": "Feature", "properties": {"Program Name": "Barren County Health Department SSP", "Street Address 1": "318 W Washington St.", "City": "Glasgow", "State": "KY", "Zip": "42141", "Phone": "2706518321"}, "geometry": {"type": "Point", "coordinates": [-85.917849, 36.979951]}}, {"id": "391", "type": "Feature", "properties": {"Program Name": "Warren County SSP", "Street Address 1": "1109 State St", "City": "Bowling Green", "State": "KY", "Zip": "42101", "Phone": "2707818039"}, "geometry": {"type": "Point", "coordinates": [-86.4513721, 37.0105806]}}, {"id": "393", "type": "Feature", "properties": {"Program Name": "New Orleans Syringe Access Program (Cresent Care NOSAP)", "Street Address 1": "1631 Elysian Fields", "City": "New Orleans", "State": "LA", "Zip": "70115", "Phone": "504-945-400 ext 1355"}, "geometry": {"type": "Point", "coordinates": [-90.0988884, 29.9268232]}}, {"id": "395", "type": "Feature", "properties": {"Program Name": "The Philadelphia Center's Syringe Service Program", "Street Address 1": "2020 Centenary Boulevard", "City": "Shreveport", "State": "LA", "Zip": "71104", "Phone": "3185109074"}, "geometry": {"type": "Point", "coordinates": [-93.734817, 32.483872]}}, {"id": "442", "type": "Feature", "properties": {"Program Name": "Frederick County Health Department Syringe Services Program", "Street Address 1": "350 Montevue Lane", "City": "Frederick", "State": "MD", "Zip": "21702", "Phone": " Jessica Ellis (SEP)"}, "geometry": {"type": "Point", "coordinates": [-77.4380687, 39.4441353]}}, {"id": "444", "type": "Feature", "properties": {"Program Name": "Washington County Health Department-Divison of Behavioral Health Services Harm Reduction Program", "Street Address 1": "925 N Burhans Blvd", "City": "Hagerstown", "State": "MD", "Zip": "21740", "Phone": "240-313-3310"}, "geometry": {"type": "Point", "coordinates": [-77.730918, 39.633072]}}, {"id": "445", "type": "Feature", "properties": {"Program Name": "Howard County Health Department Harm Reduction SSP", "Street Address 1": "8930 Stanford Boulevard", "City": "Columbia", "State": "MD", "Zip": "21045", "Phone": "6672031264"}, "geometry": {"type": "Point", "coordinates": [-76.824832, 39.205337]}}, {"id": "456", "type": "Feature", "properties": {"Program Name": "Red Project", "Street Address 1": "401 Hall St SE", "City": "Grand Rapids", "State": "MI", "Zip": "49507", "Phone": "(616) 456-9063"}, "geometry": {"type": "Point", "coordinates": [-85.6532926, 42.9304923]}}, {"id": "457", "type": "Feature", "properties": {"Program Name": "Red Project", "Street Address 1": "54 S Division St", "City": "Grand Rapids", "State": "MI", "Zip": "49503", "Phone": "(616) 456-9063"}, "geometry": {"type": "Point", "coordinates": [-85.661759, 42.9621]}}, {"id": "458", "type": "Feature", "properties": {"Program Name": "Red Project", "Street Address 1": "698 Stocking Ave NW", "City": "Grand Rapids", "State": "MI", "Zip": "49504", "Phone": "(616) 456-9063"}, "geometry": {"type": "Point", "coordinates": [-85.698475, 42.980047]}}, {"id": "459", "type": "Feature", "properties": {"Program Name": "Red Project", "Street Address 1": "1620 Kalamazoo Ave SE", "City": "Grand Rapids", "State": "MI", "Zip": "49507", "Phone": "(616) 456-9063"}, "geometry": {"type": "Point", "coordinates": [-85.6532926, 42.9304923]}}, {"id": "460", "type": "Feature", "properties": {"Program Name": "Red Project", "Street Address 1": "2000 Division Ave South", "City": "Grand Rapids", "State": "MI", "Zip": "49507", "Phone": "(616) 456-9063"}, "geometry": {"type": "Point", "coordinates": [-85.6532926, 42.9304923]}}, {"id": "461", "type": "Feature", "properties": {"Program Name": "Red Project", "Street Address 1": "1657 S Getty St", "City": "Muskegon", "State": "MI", "Zip": "49442", "Phone": "(616) 456-9063"}, "geometry": {"type": "Point", "coordinates": [-86.179766, 43.236989]}}, {"id": "462", "type": "Feature", "properties": {"Program Name": "Red Project", "Street Address 1": "W Sherman Blvd & Sanford St", "City": "Muskegon Heights", "State": "MI", "Zip": "49444", "Phone": "(616) 456-9063"}, "geometry": {"type": "Point", "coordinates": [-86.215483, 43.182267]}}, {"id": "463", "type": "Feature", "properties": {"Program Name": "Red Project", "Street Address 1": "5681 M-37", "City": "Baldwin", "State": "MI", "Zip": "49304", "Phone": "(616) 456-9063"}, "geometry": {"type": "Point", "coordinates": [-85.885342, 43.889835]}}, {"id": "464", "type": "Feature", "properties": {"Program Name": "Red Project", "Street Address 1": "1090 Michigan Ave", "City": "Baldwin", "State": "MI", "Zip": "49304", "Phone": "(616) 456-9063"}, "geometry": {"type": "Point", "coordinates": [-85.885342, 43.889835]}}, {"id": "465", "type": "Feature", "properties": {"Program Name": "Red Project", "Street Address 1": "105 Lincoln St.", "City": "Hart", "State": "MI", "Zip": "49420", "Phone": "(616) 456-9063"}, "geometry": {"type": "Point", "coordinates": [-86.3381918, 43.7293788]}}, {"id": "466", "type": "Feature", "properties": {"Program Name": "Red Project", "Street Address 1": "920 Diana St.", "City": "Ludington", "State": "MI", "Zip": "49431", "Phone": "(616) 456-9063"}, "geometry": {"type": "Point", "coordinates": [-86.4337053, 43.9661574]}}, {"id": "467", "type": "Feature", "properties": {"Program Name": "Red Project", "Street Address 1": "12265 James St", "City": "Holland", "State": "MI", "Zip": "49424", "Phone": "(616) 456-9063"}, "geometry": {"type": "Point", "coordinates": [-86.139148, 42.82034]}}, {"id": "468", "type": "Feature", "properties": {"Program Name": "Red Project", "Street Address 1": "714 Columbus Ave.", "City": "Grand Haven", "State": "MI", "Zip": "49417", "Phone": "(616) 456-9063"}, "geometry": {"type": "Point", "coordinates": [-86.202193, 43.043216]}}, {"id": "469", "type": "Feature", "properties": {"Program Name": "Red Project", "Street Address 1": "3283 122nd Ave", "City": "Allegan", "State": "MI", "Zip": "49010", "Phone": "(616) 456-9063"}, "geometry": {"type": "Point", "coordinates": [-85.862598, 42.531931]}}, {"id": "478", "type": "Feature", "properties": {"Program Name": "Harm Reduction Michigan", "Street Address 1": "733 East 8th Street", "City": "Traverse City", "State": "MI", "Zip": "49686", "Phone": "2314935124"}, "geometry": {"type": "Point", "coordinates": [-85.5723735, 44.7829824]}}, {"id": "479", "type": "Feature", "properties": {"Program Name": "Harm Reduction Michigan", "Street Address 1": "501 West Front Street ", "City": "Traverse City", "State": "MI", "Zip": "49686", "Phone": "2314935124"}, "geometry": {"type": "Point", "coordinates": [-85.5723735, 44.7829824]}}, {"id": "481", "type": "Feature", "properties": {"Program Name": "Rise Up Initative ", "Street Address 1": "615 Saginaw street ", "City": "Flint", "State": "MI", "Zip": "48502", "Phone": "2484599465"}, "geometry": {"type": "Point", "coordinates": [-83.6905, 43.017295]}}, {"id": "491", "type": "Feature", "properties": {"Program Name": "Clinic 555", "Street Address 1": "555 Cedar St", "City": "Saint Paul", "State": "MN", "Zip": "55101", "Phone": "651-266-1264"}, "geometry": {"type": "Point", "coordinates": [-93.091673, 44.948298]}}, {"id": "492", "type": "Feature", "properties": {"Program Name": "Indigenous Peoples Task Force Syringe Exchange", "Street Address 1": "1335 E 23rd St", "City": "Minneapolis", "State": "MN", "Zip": "55404", "Phone": " Nicole Christian"}, "geometry": {"type": "Point", "coordinates": [-93.2638493, 44.9636888]}}, {"id": "493", "type": "Feature", "properties": {"Program Name": "Native American Community Clinic", "Street Address 1": null, "City": "Minneapolis", "State": "MN", "Zip": "55404", "Phone": "(612) 872-8086"}, "geometry": {"type": "Point", "coordinates": [-93.2638493, 44.9636888]}}, {"id": "494", "type": "Feature", "properties": {"Program Name": "NorthPoint Harm Reduction and Testing Services - \"In N' Out\"", "Street Address 1": "710 W Broadway Ave", "City": "Minneapolis", "State": "MN", "Zip": "55411", "Phone": " Program Manager"}, "geometry": {"type": "Point", "coordinates": [-93.2990329, 44.9995211]}}, {"id": "495", "type": "Feature", "properties": {"Program Name": "Red Door Clinic", "Street Address 1": "525 Portland Ave S", "City": "Minneapolis", "State": "MN", "Zip": "55407", "Phone": "O: 612-596-9005"}, "geometry": {"type": "Point", "coordinates": [-93.2537104, 44.9409166]}}, {"id": "496", "type": "Feature", "properties": {"Program Name": "Rural AIDS Action Network (RAAN)", "Street Address 1": "31 West 1st. St.", "City": "Duluth", "State": "MN", "Zip": "55802", "Phone": "218-464-2599"}, "geometry": {"type": "Point", "coordinates": [-92.1010066, 46.7847401]}}, {"id": "497", "type": "Feature", "properties": {"Program Name": "Rural AIDS Action Network (RAAN)", "Street Address 1": "220 E. Hickory St. ", "City": "Mankato", "State": "MN", "Zip": "56000", "Phone": "507-995-1939"}, "geometry": {"type": "Point", "coordinates": [-2.759806, 47.6552728]}}, {"id": "498", "type": "Feature", "properties": {"Program Name": "Rural AIDS Action Network (RAAN)", "Street Address 1": "300 East Saint Germain St", "City": "St. Cloud", "State": "MN", "Zip": "56304", "Phone": "320-209-1181"}, "geometry": {"type": "Point", "coordinates": [-94.122035, 45.552453]}}, {"id": "500", "type": "Feature", "properties": {"Program Name": "Steve Rummler HOPE Network", "Street Address 1": "2233 University Avenue", "City": "St. Paul", "State": "MN", "Zip": "55342", "Phone": "(Alicia House) 612-217-4212"}, "geometry": {"type": "Point", "coordinates": [-94.7179887, 44.7387264]}}, {"id": "506", "type": "Feature", "properties": {"Program Name": "NorthPoint Harm Reduction and Testing Services - \"In N' Out\"", "Street Address 1": "710 W. Broadway", "City": "Minneapolis", "State": "MN", "Zip": "55411", "Phone": "6122670305"}, "geometry": {"type": "Point", "coordinates": [-93.2990329, 44.9995211]}}, {"id": "509", "type": "Feature", "properties": {"Program Name": "Xchange", "Street Address 1": "3515 Broadway Ave", "City": "Kansas City", "State": "MO", "Zip": "64111", "Phone": null}, "geometry": {"type": "Point", "coordinates": [-94.593691, 39.055948]}}, {"id": "515", "type": "Feature", "properties": {"Program Name": "Cabarrus Health Alliance Syringe Exchange Program of Cabarrus County", "Street Address 1": "300 Mooresville Rd", "City": "Kannapolis", "State": "NC", "Zip": "28081", "Phone": "704-920-1284"}, "geometry": {"type": "Point", "coordinates": [-80.653943, 35.497998]}}, {"id": "517", "type": "Feature", "properties": {"Program Name": "NC Harm Reduction Coalition / Wilmington Syringe Exchange", "Street Address 1": "2154 Wrightsville Ave", "City": "Wilmington", "State": "NC", "Zip": "28403", "Phone": " becca@nchrc.org"}, "geometry": {"type": "Point", "coordinates": [-77.88136, 34.22233]}}, {"id": "521", "type": "Feature", "properties": {"Program Name": "The Steady Collective", "Street Address 1": "297 Haywood St", "City": "Asheville", "State": "NC", "Zip": "28801", "Phone": "828-318-3121"}, "geometry": {"type": "Point", "coordinates": [-82.5549794, 35.5960694]}}, {"id": "524", "type": "Feature", "properties": {"Program Name": "Twin City Harm Reduction Collective (TCHRC)", "Street Address 1": "639 S. Green Street", "City": "Winston Salem", "State": "NC", "Zip": "27101", "Phone": "3365294492"}, "geometry": {"type": "Point", "coordinates": [-80.2281349, 36.1004357]}}, {"id": "525", "type": "Feature", "properties": {"Program Name": "Guilford Countty Solution to the Opioid Problem (GCSTOP)", "Street Address 1": "1601 Walker Ave ", "City": "Greensboro", "State": "NC", "Zip": "27403", "Phone": "3368501139"}, "geometry": {"type": "Point", "coordinates": [-79.8221, 36.063753]}}, {"id": "527", "type": "Feature", "properties": {"Program Name": "ekiM For Change", "Street Address 1": "620 Lynndale Court Suite C  ", "City": "Greenville", "State": "NC", "Zip": "27858", "Phone": "2522586161"}, "geometry": {"type": "Point", "coordinates": [-77.344067, 35.584121]}}, {"id": "541", "type": "Feature", "properties": {"Program Name": "NC Harm Reduction Coalition / Wake Syringe Services Program", "Street Address 1": "4024 Barrett Dr ", "City": "Raleigh ", "State": "NC ", "Zip": "27609", "Phone": "3362095770"}, "geometry": {"type": "Point", "coordinates": [-78.62838, 35.851628]}}, {"id": "542", "type": "Feature", "properties": {"Program Name": "Custer Health - Mandan Good Neighbor Project", "Street Address 1": "403 Burlington St SE", "City": "Mandan", "State": "ND", "Zip": "58554", "Phone": "701-667-3370"}, "geometry": {"type": "Point", "coordinates": [-100.8939148, 46.8226994]}}, {"id": "543", "type": "Feature", "properties": {"Program Name": "First District Health Unit", "Street Address 1": "801 11th Ave SW", "City": "Minot", "State": "ND", "Zip": "58702", "Phone": "701-852-1376"}, "geometry": {"type": "Point", "coordinates": [-101.295411, 48.231612]}}, {"id": "545", "type": "Feature", "properties": {"Program Name": "Urban League of Westchester County Syringe Exchange Program", "Street Address 1": "4 Wilson Place ", "City": "Mount Vernon", "State": "New York", "Zip": "10550", "Phone": "9146995857"}, "geometry": {"type": "Point", "coordinates": [-73.837144, 40.908875]}}, {"id": "576", "type": "Feature", "properties": {"Program Name": "Anthony Public Health Office", "Street Address 1": "865 Main St", "City": "Anthony", "State": "NM", "Zip": "88021", "Phone": "575-882-5858"}, "geometry": {"type": "Point", "coordinates": [-106.6201907, 32.010319]}}, {"id": "579", "type": "Feature", "properties": {"Program Name": "Casa De Salud", "Street Address 1": "1608 Isleta Blvd NW", "City": "Albuquerque", "State": "NM", "Zip": "87105", "Phone": " anjali@casadesaludnm.org"}, "geometry": {"type": "Point", "coordinates": [-106.686457, 35.031279]}}, {"id": "580", "type": "Feature", "properties": {"Program Name": "Cibola Public Health Office", "Street Address 1": "700 E Roosevelt", "City": "Grants", "State": "NM", "Zip": "87020", "Phone": "505-285-4601"}, "geometry": {"type": "Point", "coordinates": [-107.8576695, 35.1535871]}}, {"id": "581", "type": "Feature", "properties": {"Program Name": "Curry County Public Health Office", "Street Address 1": "1216 Cameo", "City": "Clovis", "State": "NM", "Zip": "88101", "Phone": "575-763-5583"}, "geometry": {"type": "Point", "coordinates": [-103.2108226, 34.4160589]}}, {"id": "585", "type": "Feature", "properties": {"Program Name": "Fort Sumner Public Health Office", "Street Address 1": "643 N Fifth St", "City": "Fort Sumner", "State": "NM", "Zip": "88119", "Phone": "575-355-2362"}, "geometry": {"type": "Point", "coordinates": [-104.257731, 34.4785743]}}, {"id": "587", "type": "Feature", "properties": {"Program Name": "Hidalgo Public Health Office", "Street Address 1": "530 De Moss St", "City": "Lordsburg", "State": "NM", "Zip": "88045", "Phone": " \tjoshua.swatek@state.nm.us"}, "geometry": {"type": "Point", "coordinates": [-108.7158, 32.349653]}}, {"id": "588", "type": "Feature", "properties": {"Program Name": "InsideOut", "Street Address 1": "36 Hwy 522", "City": "El Prado", "State": "NM", "Zip": "87529", "Phone": "575-758-3392"}, "geometry": {"type": "Point", "coordinates": [-105.6004558, 36.4608309]}}, {"id": "589", "type": "Feature", "properties": {"Program Name": "InsideOut", "Street Address 1": "919 N Riverside Dr", "City": "Espanola", "State": "NM", "Zip": "87532", "Phone": "505-367-3500"}, "geometry": {"type": "Point", "coordinates": [-106.0584736, 35.9869387]}}, {"id": "590", "type": "Feature", "properties": {"Program Name": "La Familia Medical Center - Alto Street Clinic", "Street Address 1": "1035 Alto Street", "City": "Santa Fe", "State": "NM", "Zip": "87501", "Phone": " jblock@lfmctr.org"}, "geometry": {"type": "Point", "coordinates": [-105.93789, 35.690083]}}, {"id": "591", "type": "Feature", "properties": {"Program Name": "La Familia Medical Center - Southside Clinic", "Street Address 1": "2145 Caja Del Oro Grant Rd.", "City": "Santa Fe", "State": "NM", "Zip": "87507", "Phone": " jblock@lfmctr.org"}, "geometry": {"type": "Point", "coordinates": [-106.0241607, 35.6432263]}}, {"id": "592", "type": "Feature", "properties": {"Program Name": "La Familia Medical Center Healthcare for the Homeless - Cerillos Road Location", "Street Address 1": "1532B Cerrillos Road", "City": "Santa Fe", "State": "NM", "Zip": "87201", "Phone": " jblock@lfmctr.org"}, "geometry": {"type": "Point", "coordinates": [-46.1765096, -23.5387142]}}, {"id": "593", "type": "Feature", "properties": {"Program Name": "Las Cruces Public Health Office", "Street Address 1": "1170 N Solano Dr", "City": "Las Cruces", "State": "NM", "Zip": "88001", "Phone": " \tjoshua.swatek@state.nm.us"}, "geometry": {"type": "Point", "coordinates": [-106.758742, 32.298621]}}, {"id": "595", "type": "Feature", "properties": {"Program Name": "Los Lunas Public Health Office", "Street Address 1": "445 Camino Del Rey SW", "City": "Los Lunas", "State": "NM", "Zip": "87031", "Phone": " \tjoshua.swatek@state.nm.us"}, "geometry": {"type": "Point", "coordinates": [-106.712504, 34.805305]}}, {"id": "596", "type": "Feature", "properties": {"Program Name": "Lovington Health Office", "Street Address 1": "302 N Fifth St", "City": "Lovington", "State": "NM", "Zip": "88260", "Phone": " \tjoshua.swatek@state.nm.us"}, "geometry": {"type": "Point", "coordinates": [-103.34738, 32.948624]}}, {"id": "597", "type": "Feature", "properties": {"Program Name": "Midtown Public Health Office", "Street Address 1": "2400 Wellesley Dr NE", "City": "Albuquerque", "State": "NM", "Zip": "87107", "Phone": " \tjoshua.swatek@state.nm.us"}, "geometry": {"type": "Point", "coordinates": [-106.637405, 35.13132]}}, {"id": "598", "type": "Feature", "properties": {"Program Name": "Mora Public Health Office ", "Street Address 1": "518 Main St", "City": "Mora", "State": "NM", "Zip": "87732", "Phone": " \tjoshua.swatek@state.nm.us"}, "geometry": {"type": "Point", "coordinates": [-105.3203266, 35.9654913]}}, {"id": "600", "type": "Feature", "properties": {"Program Name": "North Valley Public Health Office", "Street Address 1": "7704 2nd St NW", "City": "Albuquerque", "State": "NM", "Zip": "87107", "Phone": " \tjoshua.swatek@state.nm.us"}, "geometry": {"type": "Point", "coordinates": [-106.637405, 35.13132]}}, {"id": "601", "type": "Feature", "properties": {"Program Name": "Otero Public Health Office", "Street Address 1": "1207 8th Street", "City": "Alamogordo", "State": "NM", "Zip": "88310", "Phone": " \tjoshua.swatek@state.nm.us"}, "geometry": {"type": "Point", "coordinates": [-105.9555943, 32.8933303]}}, {"id": "602", "type": "Feature", "properties": {"Program Name": "Pecos Valley Medical Center", "Street Address 1": "199 NM-50", "City": "Pecos", "State": "NM", "Zip": "87552", "Phone": "505-757-7051"}, "geometry": {"type": "Point", "coordinates": [-105.6772681, 35.5773332]}}, {"id": "603", "type": "Feature", "properties": {"Program Name": "Rio Arriba Health Office / Espanola Public Office", "Street Address 1": "2010 Industrial Park Road", "City": "Espanola", "State": "NM", "Zip": "87532", "Phone": " \tjoshua.swatek@state.nm.us"}, "geometry": {"type": "Point", "coordinates": [-106.0584736, 35.9869387]}}, {"id": "604", "type": "Feature", "properties": {"Program Name": "Ruidoso Public Health Office", "Street Address 1": "117 Kansas City Rd", "City": "Ruidoso", "State": "NM", "Zip": "88345", "Phone": " \tjoshua.swatek@state.nm.us"}, "geometry": {"type": "Point", "coordinates": [-105.670413, 33.346659]}}, {"id": "605", "type": "Feature", "properties": {"Program Name": "San Juan County Public Health Office - Bloomfield", "Street Address 1": "903 W Broadway", "City": "Bloomfield", "State": "NM", "Zip": "87413", "Phone": " \tjoshua.swatek@state.nm.us"}, "geometry": {"type": "Point", "coordinates": [-107.9727651, 36.710109]}}, {"id": "606", "type": "Feature", "properties": {"Program Name": "San Juan County Public Health Office - Farmington", "Street Address 1": "355 S Miller", "City": "Farmington", "State": "NM", "Zip": "87401", "Phone": " \tjoshua.swatek@state.nm.us"}, "geometry": {"type": "Point", "coordinates": [-108.1929394, 36.7386107]}}, {"id": "607", "type": "Feature", "properties": {"Program Name": "San Miguel Public Health Office", "Street Address 1": "18 Gallegos Rd", "City": "Las Vegas", "State": "NM", "Zip": "87701", "Phone": " \tjoshua.swatek@state.nm.us"}, "geometry": {"type": "Point", "coordinates": [-105.2328334, 35.5834109]}}, {"id": "608", "type": "Feature", "properties": {"Program Name": "Sandoval County Health Commons", "Street Address 1": "1500 Idalia", "City": "Bernalillo", "State": "NM", "Zip": "87004", "Phone": " \tjoshua.swatek@state.nm.us"}, "geometry": {"type": "Point", "coordinates": [-106.5548244, 35.3078669]}}, {"id": "609", "type": "Feature", "properties": {"Program Name": "Santa Fe Public Health Office", "Street Address 1": "605 Letrado", "City": "Santa Fe", "State": "NM", "Zip": "87505", "Phone": " \tjoshua.swatek@state.nm.us"}, "geometry": {"type": "Point", "coordinates": [-105.942439, 35.656284]}}, {"id": "610", "type": "Feature", "properties": {"Program Name": "Sierra Public Health Office", "Street Address 1": "201 E 4th St", "City": "Truth or Consequences", "State": "NM", "Zip": "87901", "Phone": " \tjoshua.swatek@state.nm.us"}, "geometry": {"type": "Point", "coordinates": [-107.2512835, 33.1341871]}}, {"id": "611", "type": "Feature", "properties": {"Program Name": "Socorro Public Health Office", "Street Address 1": "214 Neel Ave NW", "City": "Socorro", "State": "NM", "Zip": "87801", "Phone": " \tjoshua.swatek@state.nm.us"}, "geometry": {"type": "Point", "coordinates": [-106.906559, 34.046181]}}, {"id": "613", "type": "Feature", "properties": {"Program Name": "Southwest Valley Public Health Office", "Street Address 1": "2001 N Centro Familiar SW", "City": "Albuquerque", "State": "NM", "Zip": "87105", "Phone": " \tjoshua.swatek@state.nm.us"}, "geometry": {"type": "Point", "coordinates": [-106.686457, 35.031279]}}, {"id": "614", "type": "Feature", "properties": {"Program Name": "Taos Public Health Office", "Street Address 1": "1400 Weimer Rd", "City": "Taos", "State": "NM", "Zip": "87571", "Phone": " \tjoshua.swatek@state.nm.us"}, "geometry": {"type": "Point", "coordinates": [-105.5689549, 36.3936078]}}, {"id": "616", "type": "Feature", "properties": {"Program Name": "Needle exchange", "Street Address 1": "1001 parsifal st ne ", "City": "Albuquerque", "State": "NM", "Zip": "87112", "Phone": "5052909276"}, "geometry": {"type": "Point", "coordinates": [-106.516986, 35.099725]}}, {"id": "619", "type": "Feature", "properties": {"Program Name": "Trac-B Exchange", "Street Address 1": "6114 W Charleston Blvd", "City": "Las Vegas", "State": "NV", "Zip": "89146", "Phone": "702-840-6693"}, "geometry": {"type": "Point", "coordinates": [-115.224432, 36.14046]}}, {"id": "620", "type": "Feature", "properties": {"Program Name": "Trac-B Exchange - Impact Exchange", "Street Address 1": "3470 W. Cheyenne Ave", "City": "Las Vegas", "State": "NV", "Zip": "89032", "Phone": "702-840-6695"}, "geometry": {"type": "Point", "coordinates": [-115.175127, 36.222305]}}, {"id": "621", "type": "Feature", "properties": {"Program Name": "Trac-B Exchange - Impact Exchange", "Street Address 1": "916 W. Owens Ave.", "City": "North Las Vegas", "State": "NV", "Zip": "89106", "Phone": "702-840-6696"}, "geometry": {"type": "Point", "coordinates": [-115.1653625, 36.1856234]}}, {"id": "622", "type": "Feature", "properties": {"Program Name": "Trac-B Exchange - Impact Exchange", "Street Address 1": "401 S. Maryland Pkwy", "City": "Las Vegas", "State": "NV", "Zip": "89101", "Phone": "702-840-6697"}, "geometry": {"type": "Point", "coordinates": [-115.1271318, 36.1720258]}}, {"id": "623", "type": "Feature", "properties": {"Program Name": "Trac-B Exchange - Impact Exchange", "Street Address 1": "1830 E Sahara Ave", "City": "Las Vegas", "State": "NV", "Zip": "89104", "Phone": "702-840-6698"}, "geometry": {"type": "Point", "coordinates": [-115.115314, 36.151229]}}, {"id": "624", "type": "Feature", "properties": {"Program Name": "Trac-B Exchange - Impact Exchange", "Street Address 1": "3050 E Desert Inn Rd", "City": "Las Vegas", "State": "NV", "Zip": "89121", "Phone": "702-840-6699"}, "geometry": {"type": "Point", "coordinates": [-115.088547, 36.122301]}}, {"id": "626", "type": "Feature", "properties": {"Program Name": "Southern Nevada Health District", "Street Address 1": "280 S Decatur", "City": "Las Vegas", "State": "NV", "Zip": "89107", "Phone": "7027591000"}, "geometry": {"type": "Point", "coordinates": [-115.211766, 36.172284]}}, {"id": "627", "type": "Feature", "properties": {"Program Name": "The Life Change Center", "Street Address 1": "1755 Sullivan Ln", "City": "Sparks ", "State": "NV", "Zip": "89431", "Phone": "17754554260"}, "geometry": {"type": "Point", "coordinates": [-119.7546532, 39.5410118]}}, {"id": "635", "type": "Feature", "properties": {"Program Name": "PROMESA- Westchester Center of Excellence", "Street Address 1": "915 Westchester Avenue 2nd floor", "City": "Bronx", "State": "NY", "Zip": "10459", "Phone": " LMSW"}, "geometry": {"type": "Point", "coordinates": [-73.893869, 40.825613]}}, {"id": "637", "type": "Feature", "properties": {"Program Name": "Alliance LES harm Reduction Center (LESHRC)", "Street Address 1": "35 Broadway", "City": "New York", "State": "NY", "Zip": "10002", "Phone": "2122266333"}, "geometry": {"type": "Point", "coordinates": [-73.987585, 40.716266]}}, {"id": "648", "type": "Feature", "properties": {"Program Name": "Garrett L Kassler Memorial Fund Inc.", "Street Address 1": null, "City": "Plainview", "State": "NY", "Zip": "11803", "Phone": "516 297 2481"}, "geometry": {"type": "Point", "coordinates": [-73.4737613, 40.7794748]}}, {"id": "649", "type": "Feature", "properties": {"Program Name": "Tompkins County Prevention Point- TCPP", "Street Address 1": "314 W State St.", "City": "Ithaca", "State": "NY", "Zip": "14850", "Phone": "6072724098"}, "geometry": {"type": "Point", "coordinates": [-76.4912464, 42.4472017]}}, {"id": "652", "type": "Feature", "properties": {"Program Name": "YMCA Counseling Service", "Street Address 1": "3911- Richmond Avenue ", "City": "Staten Island", "State": "NY", "Zip": "10312", "Phone": "7189483232"}, "geometry": {"type": "Point", "coordinates": [-74.1738965, 40.5431936]}}, {"id": "653", "type": "Feature", "properties": {"Program Name": "YMCA Counseling Service", "Street Address 1": "285 Vanderbilt Avenue", "City": "Staten Island", "State": "NY", "Zip": "10304", "Phone": "7189814382"}, "geometry": {"type": "Point", "coordinates": [-74.08926, 40.612772]}}, {"id": "655", "type": "Feature", "properties": {"Program Name": "The Alcohol and Substance Abuse Prevention Council of Saratoga", "Street Address 1": "125 High Rock Ave", "City": "Saratoga Springs", "State": "NY", "Zip": "12866", "Phone": "5183063048"}, "geometry": {"type": "Point", "coordinates": [-73.773944, 43.078746]}}, {"id": "657", "type": "Feature", "properties": {"Program Name": "Project Exchange", "Street Address 1": "202 Cornelia Street", "City": "Plattsburgh", "State": "NY", "Zip": "12901", "Phone": "5188987236"}, "geometry": {"type": "Point", "coordinates": [-73.4633423, 44.6976196]}}, {"id": "661", "type": "Feature", "properties": {"Program Name": "Project Safe Point", "Street Address 1": "100 Slinglerland Street", "City": "Albany", "State": "NY", "Zip": "12202", "Phone": "5184493581"}, "geometry": {"type": "Point", "coordinates": [-73.7596453, 42.6423415]}}, {"id": "665", "type": "Feature", "properties": {"Program Name": "WHCP (Washington Heights CORNER Project)", "Street Address 1": "179th street & Amsterdam Avenue ", "City": "New York", "State": "NY", "Zip": "10033", "Phone": "13475951906"}, "geometry": {"type": "Point", "coordinates": [-73.9355878, 40.8490174]}}, {"id": "666", "type": "Feature", "properties": {"Program Name": "NewYork Harm Reduction Educators", "Street Address 1": "104-106 East 126th Street ", "City": "New York", "State": "NY", "Zip": "10035", "Phone": null}, "geometry": {"type": "Point", "coordinates": [-73.9368732, 40.8007806]}}, {"id": "667", "type": "Feature", "properties": {"Program Name": "Project Safe Point - PSP", "Street Address 1": "100 Slingerland St ", "City": "Albany", "State": "NY", "Zip": "12202", "Phone": "5184493581"}, "geometry": {"type": "Point", "coordinates": [-73.7596453, 42.6423415]}}, {"id": "668", "type": "Feature", "properties": {"Program Name": "Sunriver MAT", "Street Address 1": "6 Henry Street", "City": "Beacon", "State": "NY", "Zip": "12508", "Phone": "8444001975"}, "geometry": {"type": "Point", "coordinates": [-73.9647922, 41.5019799]}}, {"id": "669", "type": "Feature", "properties": {"Program Name": "Medication Assisted Treatment-MAT", "Street Address 1": "1543 Inwood Avenue", "City": "Bronx", "State": "NY", "Zip": "10452", "Phone": "8444001975"}, "geometry": {"type": "Point", "coordinates": [-73.9202231, 40.8385512]}}, {"id": "672", "type": "Feature", "properties": {"Program Name": "Sunriver MAT", "Street Address 1": "750 Union St", "City": "Hudson", "State": "NY", "Zip": "12534", "Phone": "8444001975"}, "geometry": {"type": "Point", "coordinates": [-73.7680293, 42.2458349]}}, {"id": "673", "type": "Feature", "properties": {"Program Name": "Sunriver MAT", "Street Address 1": "19-23 Lakewood Avenue", "City": "Monticello", "State": "NY", "Zip": "12701", "Phone": "8444001975"}, "geometry": {"type": "Point", "coordinates": [-74.6995604, 41.6524133]}}, {"id": "674", "type": "Feature", "properties": {"Program Name": "Sunriver MAT", "Street Address 1": "1037 Main Street", "City": "Peekskill", "State": "NY", "Zip": "10566", "Phone": "8444001975"}, "geometry": {"type": "Point", "coordinates": [-73.9172661, 41.2899702]}}, {"id": "675", "type": "Feature", "properties": {"Program Name": "Sunriver MAT", "Street Address 1": "75 Washington Street", "City": "Poughkeepsie", "State": "NY", "Zip": "12601", "Phone": "8444001975"}, "geometry": {"type": "Point", "coordinates": [-73.9212811, 41.6974592]}}, {"id": "676", "type": "Feature", "properties": {"Program Name": "Sunriver MAT", "Street Address 1": "1080 Sunrise Hwy ", "City": "Amityville", "State": "NY", "Zip": "11701", "Phone": "8444001975"}, "geometry": {"type": "Point", "coordinates": [-73.4134749, 40.6856884]}}, {"id": "677", "type": "Feature", "properties": {"Program Name": "Sunriver MAT", "Street Address 1": "55 Horizon Drive", "City": "Huntington", "State": "NY", "Zip": "11743", "Phone": "8444001975"}, "geometry": {"type": "Point", "coordinates": [-73.4113578, 40.8678944]}}, {"id": "678", "type": "Feature", "properties": {"Program Name": "Sunriver MAT", "Street Address 1": "82 Middle Country Road", "City": "Coram", "State": "NY", "Zip": "11727", "Phone": "8444001975"}, "geometry": {"type": "Point", "coordinates": [-73.0047545, 40.8781822]}}, {"id": "679", "type": "Feature", "properties": {"Program Name": "Sunriver MAT", "Street Address 1": "330 Meeting House Lane", "City": "Southampton", "State": "NY", "Zip": "11968", "Phone": "8444001975"}, "geometry": {"type": "Point", "coordinates": [-72.4098733, 40.9073954]}}, {"id": "680", "type": "Feature", "properties": {"Program Name": "Sunriver MAT", "Street Address 1": "327 Front Street", "City": "Greenport", "State": "NY", "Zip": "11944", "Phone": "8444001975"}, "geometry": {"type": "Point", "coordinates": [-72.367916, 41.110803]}}, {"id": "708", "type": "Feature", "properties": {"Program Name": "Project Safe Point", "Street Address 1": "100 Slingerlands St", "City": "Albany", "State": "NY", "Zip": "12202", "Phone": "18669304999"}, "geometry": {"type": "Point", "coordinates": [-73.7596453, 42.6423415]}}, {"id": "709", "type": "Feature", "properties": {"Program Name": "Athens City-County Health Department and Harm Reduction Program", "Street Address 1": "278 W Union St", "City": "Athens", "State": "OH", "Zip": "45701", "Phone": "740-592-4431 or 740-591-0810"}, "geometry": {"type": "Point", "coordinates": [-82.1042977, 39.3234368]}}, {"id": "710", "type": "Feature", "properties": {"Program Name": "Brown County Health Department / Prevention Point", "Street Address 1": "826 Mt Orab Pike", "City": "Georgetown", "State": "OH", "Zip": "45121", "Phone": "O: 937-378-6892"}, "geometry": {"type": "Point", "coordinates": [-83.9080695, 38.8656155]}}, {"id": "711", "type": "Feature", "properties": {"Program Name": "Canton City Public Health", "Street Address 1": "420 Market Ave N", "City": "Canton", "State": "OH", "Zip": "44702", "Phone": "(330) 489-3322"}, "geometry": {"type": "Point", "coordinates": [-81.3750474, 40.8003936]}}, {"id": "713", "type": "Feature", "properties": {"Program Name": "CarePoint", "Street Address 1": "425 Findlay St", "City": "Dayton", "State": "OH", "Zip": "45404", "Phone": " Michele Howard-Graham"}, "geometry": {"type": "Point", "coordinates": [-84.165671, 39.784703]}}, {"id": "714", "type": "Feature", "properties": {"Program Name": "CarePoint", "Street Address 1": "6175 W 3rd St", "City": "Dayton", "State": "OH", "Zip": "45417", "Phone": " Michele Howard-Graham"}, "geometry": {"type": "Point", "coordinates": [-84.268307, 39.739712]}}, {"id": "715", "type": "Feature", "properties": {"Program Name": "CarePoint", "Street Address 1": "624 Xenia Ave", "City": "Dayton", "State": "OH", "Zip": "45410", "Phone": " Michele Howard-Graham"}, "geometry": {"type": "Point", "coordinates": [-84.155711, 39.746659]}}, {"id": "716", "type": "Feature", "properties": {"Program Name": "Darke County Health Department", "Street Address 1": "300 Garst Ave", "City": "Greenville", "State": "OH", "Zip": "45331", "Phone": "937-548-4196"}, "geometry": {"type": "Point", "coordinates": [-84.6314173, 40.0982224]}}, {"id": "717", "type": "Feature", "properties": {"Program Name": "Equitas Health", "Street Address 1": "1267 Broad St", "City": "Columbus", "State": "OH", "Zip": "43222", "Phone": "614-209-1542"}, "geometry": {"type": "Point", "coordinates": [-83.0256286, 39.9579263]}}, {"id": "719", "type": "Feature", "properties": {"Program Name": "Gallia County Health Department", "Street Address 1": "499 Jackson Pike", "City": "Gallipolis", "State": "OH", "Zip": "45631", "Phone": "740-441-2950"}, "geometry": {"type": "Point", "coordinates": [-82.216316, 38.812085]}}, {"id": "720", "type": "Feature", "properties": {"Program Name": "Greene County Public Health", "Street Address 1": "600 Pierce Dr", "City": "Fairborn", "State": "OH", "Zip": "45324", "Phone": "937-374-5646 or 937-309-2877"}, "geometry": {"type": "Point", "coordinates": [-84.021326, 39.802168]}}, {"id": "721", "type": "Feature", "properties": {"Program Name": "Greene County Public Health", "Street Address 1": "360 Wilson Dr", "City": "Xenia", "State": "OH", "Zip": "45385", "Phone": "937-374-5646 or 937-309-2877"}, "geometry": {"type": "Point", "coordinates": [-83.940454, 39.681918]}}, {"id": "722", "type": "Feature", "properties": {"Program Name": "Hancock Public Health / Project DAWN", "Street Address 1": "2225 Keith Parkway", "City": "Findlay", "State": "OH", "Zip": "45840", "Phone": "567-250-5151"}, "geometry": {"type": "Point", "coordinates": [-83.640406, 41.046386]}}, {"id": "723", "type": "Feature", "properties": {"Program Name": "Lorain County Public Health", "Street Address 1": "3150 Clifton Ave", "City": "Lorain", "State": "OH", "Zip": "44055", "Phone": " Pam Weiland"}, "geometry": {"type": "Point", "coordinates": [-82.13873, 41.434267]}}, {"id": "726", "type": "Feature", "properties": {"Program Name": "McKinley Hall Project DAWN", "Street Address 1": "2624 Lexington Ave", "City": "Springfield", "State": "OH", "Zip": "45505", "Phone": " Program Coordinator"}, "geometry": {"type": "Point", "coordinates": [-83.781465, 39.909982]}}, {"id": "731", "type": "Feature", "properties": {"Program Name": "Portsmouth City Health Department / Project DAWN", "Street Address 1": "605 Washington St", "City": "Portsmouth", "State": "OH", "Zip": "45662", "Phone": "(740) 353-5153 ext. 8943 or 740-285-0574"}, "geometry": {"type": "Point", "coordinates": [-82.9463027, 38.7648058]}}, {"id": "732", "type": "Feature", "properties": {"Program Name": "Project 414", "Street Address 1": "300 E 2nd St", "City": "Chillicothe", "State": "OH", "Zip": "45601", "Phone": "740-600-4187"}, "geometry": {"type": "Point", "coordinates": [-82.991977, 39.34041]}}, {"id": "745", "type": "Feature", "properties": {"Program Name": "Zanesville-Muskingum County Health Department", "Street Address 1": "205 N 7th St", "City": "Zanesville", "State": "OH", "Zip": "43701", "Phone": "(740) 454-9741"}, "geometry": {"type": "Point", "coordinates": [-82.0121446, 39.9505164]}}, {"id": "748", "type": "Feature", "properties": {"Program Name": "Logan County Health District", "Street Address 1": "310 S Main Street", "City": "Bellefontaine", "State": "OH", "Zip": "43311", "Phone": "9376513033"}, "geometry": {"type": "Point", "coordinates": [-83.755462, 40.357988]}}, {"id": "749", "type": "Feature", "properties": {"Program Name": "Project DAWN (Deaths Avoided With Naloxone) Tuscarawas County Health Department ", "Street Address 1": "897 East Iron Avenue ", "City": "Dover", "State": "OH", "Zip": "44622", "Phone": "3.30344E+12"}, "geometry": {"type": "Point", "coordinates": [-81.480104, 40.535423]}}, {"id": "753", "type": "Feature", "properties": {"Program Name": "Clatsop County Syringe Exchange & Jordan\u2019s Hope", "Street Address 1": "725 S Wahanna Rd", "City": "Seaside", "State": "OR", "Zip": "97138", "Phone": "(503) 325-8500"}, "geometry": {"type": "Point", "coordinates": [-123.912977, 46.001539]}}, {"id": "754", "type": "Feature", "properties": {"Program Name": "Clatsop County Syringe Exchange & Jordan\u2019s Hope", "Street Address 1": "65 US-101", "City": "Warrenton", "State": "OR", "Zip": "97146", "Phone": "(503) 325-8500"}, "geometry": {"type": "Point", "coordinates": [-123.929212, 46.152206]}}, {"id": "755", "type": "Feature", "properties": {"Program Name": "Clatsop County Syringe Exchange & Jordan\u2019s Hope", "Street Address 1": "3250 Leif Erickson Drive", "City": "Astoria", "State": "OR", "Zip": "97103", "Phone": "(503) 325-8500"}, "geometry": {"type": "Point", "coordinates": [-123.813471, 46.171128]}}, {"id": "766", "type": "Feature", "properties": {"Program Name": "Jackson County Syringe Exchange Program", "Street Address 1": "140 S Holly St", "City": "Medford", "State": "OR", "Zip": "97501", "Phone": " PhilliTF@jacksoncounty.org"}, "geometry": {"type": "Point", "coordinates": [-122.8786776, 42.3151915]}}, {"id": "767", "type": "Feature", "properties": {"Program Name": "Jordan's Hope", "Street Address 1": "1095 Duane St", "City": "Astoria", "State": "OR", "Zip": "97103", "Phone": "503-338-2169"}, "geometry": {"type": "Point", "coordinates": [-123.813471, 46.171128]}}, {"id": "771", "type": "Feature", "properties": {"Program Name": "Outside In - Clackamas Service Center ", "Street Address 1": "8800 SE 80th Ave", "City": "Portland ", "State": "OR", "Zip": "97206", "Phone": "503.535.3826"}, "geometry": {"type": "Point", "coordinates": [-122.598698, 45.483066]}}, {"id": "772", "type": "Feature", "properties": {"Program Name": "Outside In - Oregon City ", "Street Address 1": "700 Molalla Ave", "City": "Oregon City ", "State": "OR", "Zip": "97045", "Phone": "503.535.3826"}, "geometry": {"type": "Point", "coordinates": [-122.5790457, 45.3318233]}}, {"id": "773", "type": "Feature", "properties": {"Program Name": "Outside In - Portland", "Street Address 1": "1219 SW Main St", "City": "Portland", "State": "OR", "Zip": "97205", "Phone": "503.535.3826"}, "geometry": {"type": "Point", "coordinates": [-122.6873443, 45.5210826]}}, {"id": "774", "type": "Feature", "properties": {"Program Name": "Portland People's Outreach Project", "Street Address 1": "St. Francis Park", "City": "Portland ", "State": "OR", "Zip": "97214", "Phone": "503-302-3583"}, "geometry": {"type": "Point", "coordinates": [-122.642852, 45.515753]}}, {"id": "777", "type": "Feature", "properties": {"Program Name": "Portland People's Outreach Project", "Street Address 1": "6701 N Lombard St", "City": "Portland ", "State": "OR", "Zip": "97203", "Phone": "503-302-3583"}, "geometry": {"type": "Point", "coordinates": [-122.741309, 45.591937]}}, {"id": "778", "type": "Feature", "properties": {"Program Name": "Portland People's Outreach Project", "Street Address 1": "Hollywood Transit Center", "City": "Portland ", "State": "OR", "Zip": "97213", "Phone": "503-302-3583"}, "geometry": {"type": "Point", "coordinates": [-122.601588, 45.536884]}}, {"id": "783", "type": "Feature", "properties": {"Program Name": "Community Outreach through Radical Empowerment (CORE) ", "Street Address 1": "450 West 5th Avenue ", "City": "Eugene", "State": "OR", "Zip": "97401", "Phone": "5418700036"}, "geometry": {"type": "Point", "coordinates": [-123.0830449, 44.062563]}}, {"id": "809", "type": "Feature", "properties": {"Program Name": "Lancaster Harm Reduction", "Street Address 1": "1301 S Derry St", "City": "Harrisburg", "State": "PA", "Zip": "17104", "Phone": "717-808-1084"}, "geometry": {"type": "Point", "coordinates": [-76.862561, 40.258964]}}, {"id": "810", "type": "Feature", "properties": {"Program Name": "Highlands Health Harm Reduction", "Street Address 1": null, "City": "Johnstown", "State": "PA", "Zip": "15901", "Phone": "814.534.6242"}, "geometry": {"type": "Point", "coordinates": [-78.915157, 40.325809]}}, {"id": "811", "type": "Feature", "properties": {"Program Name": "Lancaster Harm Reduction Project", "Street Address 1": "N Water St & W King St", "City": "Lancaster", "State": "PA", "Zip": "17603", "Phone": "717-808-1084"}, "geometry": {"type": "Point", "coordinates": [-76.3370619, 40.0295987]}}, {"id": "812", "type": "Feature", "properties": {"Program Name": "Prevention Point Philadelphia ", "Street Address 1": "2913 Kensington Ave", "City": "Philadelphia", "State": "PA", "Zip": "19134", "Phone": "267-324-6737"}, "geometry": {"type": "Point", "coordinates": [-75.110564, 39.991614]}}, {"id": "813", "type": "Feature", "properties": {"Program Name": "Prevention Point Philadelphia ", "Street Address 1": "S Broad St & E Passyunk Ave", "City": "Philadelphia", "State": "PA", "Zip": "19145", "Phone": "267-324-6737"}, "geometry": {"type": "Point", "coordinates": [-75.1813551, 39.9201133]}}, {"id": "814", "type": "Feature", "properties": {"Program Name": "Prevention Point Philadelphia ", "Street Address 1": "S 13th St & Washington Ave", "City": "Philadelphia", "State": "PA", "Zip": "19147", "Phone": "267-324-6737"}, "geometry": {"type": "Point", "coordinates": [-75.154098, 39.93848]}}, {"id": "815", "type": "Feature", "properties": {"Program Name": "Prevention Point Philadelphia ", "Street Address 1": "N 37th St & Brown St", "City": "Philadelphia", "State": "PA", "Zip": "19104", "Phone": "267-324-6737"}, "geometry": {"type": "Point", "coordinates": [-75.2018556, 39.9580995]}}, {"id": "816", "type": "Feature", "properties": {"Program Name": "Prevention Point Philadelphia ", "Street Address 1": "Market St & N 54th St", "City": "Philadelphia", "State": "PA", "Zip": "19139", "Phone": "267-324-6737"}, "geometry": {"type": "Point", "coordinates": [-75.2261079, 39.9617751]}}, {"id": "817", "type": "Feature", "properties": {"Program Name": "Prevention Point Philadelphia ", "Street Address 1": "5201 N Frankford Ave", "City": "Philadelphia", "State": "PA", "Zip": "19124", "Phone": "267-324-6737"}, "geometry": {"type": "Point", "coordinates": [-75.0880907, 40.0154197]}}, {"id": "818", "type": "Feature", "properties": {"Program Name": "Prevention Point Philadelphia ", "Street Address 1": "1099 W Indiana Ave", "City": "Philadelphia", "State": "PA", "Zip": "19133", "Phone": "267-324-6737"}, "geometry": {"type": "Point", "coordinates": [-75.141565, 39.990628]}}, {"id": "819", "type": "Feature", "properties": {"Program Name": "Prevention Point Philadelphia ", "Street Address 1": "1199 N 3rd St", "City": "Philadelphia", "State": "PA", "Zip": "19123", "Phone": "267-324-6737"}, "geometry": {"type": "Point", "coordinates": [-75.150218, 39.964771]}}, {"id": "820", "type": "Feature", "properties": {"Program Name": "Prevention Point Philadelphia ", "Street Address 1": "Fairmount Ave & N 10th St", "City": "Philadelphia", "State": "PA", "Zip": "19123", "Phone": "267-324-6737"}, "geometry": {"type": "Point", "coordinates": [-75.150218, 39.964771]}}, {"id": "826", "type": "Feature", "properties": {"Program Name": "York Harm Reduction Project", "Street Address 1": "300 S George St", "City": "York", "State": "PA", "Zip": "17401", "Phone": "717-808-1084"}, "geometry": {"type": "Point", "coordinates": [-76.735146, 39.960206]}}, {"id": "830", "type": "Feature", "properties": {"Program Name": "Street outreach", "Street Address 1": "52nd and market street Philadelphia", "City": "Philadelphia", "State": "PA", "Zip": "19143", "Phone": "4452239901"}, "geometry": {"type": "Point", "coordinates": [-75.226118, 39.943454]}}, {"id": "859", "type": "Feature", "properties": {"Program Name": "South Carolina Harm Reduction Coalition", "Street Address 1": "80 Broad St", "City": "Charleston", "State": "SC", "Zip": "29401", "Phone": "843-822-8902"}, "geometry": {"type": "Point", "coordinates": [-79.933185, 32.780456]}}, {"id": "860", "type": "Feature", "properties": {"Program Name": "Beaufort County Alcohol and Drug Abuse Department", "Street Address 1": "1905 Duke Street", "City": "Beaufort", "State": "SC", "Zip": "29902", "Phone": "8435556000"}, "geometry": {"type": "Point", "coordinates": [-80.6884521, 32.4232304]}}, {"id": "861", "type": "Feature", "properties": {"Program Name": "Groups Recover Together", "Street Address 1": "413 Vardry Street Unit 2A", "City": "Greenville", "State": "SC", "Zip": "29601", "Phone": "8645658469"}, "geometry": {"type": "Point", "coordinates": [-82.402636, 34.848691]}}, {"id": "862", "type": "Feature", "properties": {"Program Name": "Groups Recover Together", "Street Address 1": "413 Vardry Street Unit 2A", "City": "Greenville", "State": "SC", "Zip": "29601", "Phone": "8645658469"}, "geometry": {"type": "Point", "coordinates": [-82.402636, 34.848691]}}, {"id": "863", "type": "Feature", "properties": {"Program Name": "SCORE South Carolina Overdose Response & Education", "Street Address 1": "1408 dunbar street  UNIT# 1", "City": "Myrtle Beach", "State": "SC", "Zip": "29577", "Phone": "8434576087"}, "geometry": {"type": "Point", "coordinates": [-78.896354, 33.695078]}}, {"id": "869", "type": "Feature", "properties": {"Program Name": "Street Works", "Street Address 1": "1225 9th Ave", "City": "Nashville", "State": "TN", "Zip": "37208", "Phone": "615-779-4840"}, "geometry": {"type": "Point", "coordinates": [-86.8023967, 36.1755564]}}, {"id": "870", "type": "Feature", "properties": {"Program Name": "Tennessee Recovery Alliance", "Street Address 1": "400 Main St SW", "City": "Knoxville", "State": "TN", "Zip": "37902", "Phone": "865-315-4876"}, "geometry": {"type": "Point", "coordinates": [-83.9191507, 35.9624198]}}, {"id": "877", "type": "Feature", "properties": {"Program Name": "NE TN Save-a-Life", "Street Address 1": "3193 Highway 126", "City": "Blountville", "State": "TN", "Zip": "37617", "Phone": "4239566529"}, "geometry": {"type": "Point", "coordinates": [-82.363631, 36.53418]}}, {"id": "878", "type": "Feature", "properties": {"Program Name": "Tennessee Harm Reduction", "Street Address 1": "200 Dr. Martin Luther King Jr. Drive", "City": "Jackson", "State": "TN", "Zip": "38301", "Phone": "(731) 803-0362"}, "geometry": {"type": "Point", "coordinates": [-88.816276, 35.609173]}}, {"id": "882", "type": "Feature", "properties": {"Program Name": "Central Texas Harm Reduction ", "Street Address 1": null, "City": "Waco", "State": "TX", "Zip": "76710", "Phone": "2108602443"}, "geometry": {"type": "Point", "coordinates": [-97.1895794, 31.5331855]}}, {"id": "883", "type": "Feature", "properties": {"Program Name": "Lifepoint", "Street Address 1": "1023 Springdale Road", "City": "Austin", "State": "TX", "Zip": "78721", "Phone": "5124066436"}, "geometry": {"type": "Point", "coordinates": [-97.683441, 30.268862]}}, {"id": "884", "type": "Feature", "properties": {"Program Name": "Texas Harm Reduction Alliance", "Street Address 1": "1909 E 38th 1/2 Street", "City": "Austin", "State": "TX", "Zip": "78723", "Phone": "5125800580"}, "geometry": {"type": "Point", "coordinates": [-97.6878751, 30.310262]}}, {"id": "885", "type": "Feature", "properties": {"Program Name": "Rural Communities Opioid Response Program - MAT Expansion", "Street Address 1": "506 TEXAS HIGHWAY 37", "City": "MOUNT VERNON", "State": "TX", "Zip": "75457", "Phone": "19033052277"}, "geometry": {"type": "Point", "coordinates": [-95.2172546, 33.1636361]}}, {"id": "888", "type": "Feature", "properties": {"Program Name": "Utah AIDS Foundation", "Street Address 1": "1408 South 1100 East", "City": "Salt Lake City", "State": "UT", "Zip": "84105", "Phone": " blake.johnson@utahaids.org"}, "geometry": {"type": "Point", "coordinates": [-111.8596227, 40.7375555]}}, {"id": "889", "type": "Feature", "properties": {"Program Name": "Utah Harm Reduction Coalition", "Street Address 1": "870 W N Temple", "City": "Salt Lake City", "State": "UT", "Zip": "84115", "Phone": "385-388-3006"}, "geometry": {"type": "Point", "coordinates": [-111.8925277, 40.7143473]}}, {"id": "890", "type": "Feature", "properties": {"Program Name": "Utah Naloxone", "Street Address 1": "525 South 100 East", "City": "Salt Lake City", "State": "UT", "Zip": "84102", "Phone": "385-495-9050"}, "geometry": {"type": "Point", "coordinates": [-111.8653487, 40.7637948]}}, {"id": "900", "type": "Feature", "properties": {"Program Name": "Virginia Harm Reduction Coalition", "Street Address 1": "350 Albemarle Avenue SW", "City": "Roanoke ", "State": "VA", "Zip": "24016", "Phone": " Lawson@virginiaharmreduction.org"}, "geometry": {"type": "Point", "coordinates": [-79.949308, 37.270268]}}, {"id": "901", "type": "Feature", "properties": {"Program Name": "Virginia Harm Reduction Coalition", "Street Address 1": "120 East Blue Ridge Street", "City": null, "State": "VA", "Zip": "24171", "Phone": " talk@carrynaloxone.org"}, "geometry": {"type": "Point", "coordinates": [-80.2320608, 36.6434117]}}, {"id": "902", "type": "Feature", "properties": {"Program Name": "Wise County SEP/Lenowisco Health District ", "Street Address 1": "134 Roberts Ave SW", "City": "Wise", "State": "VA", "Zip": "24293", "Phone": " RN"}, "geometry": {"type": "Point", "coordinates": [-82.565845, 36.988933]}}, {"id": "906", "type": "Feature", "properties": {"Program Name": "Bacon Street Youth and Family Services", "Street Address 1": "247 McLaws Circle", "City": "Williamsburg", "State": "VA", "Zip": "23185", "Phone": "7572530111"}, "geometry": {"type": "Point", "coordinates": [-76.713803, 37.260804]}}, {"id": "932", "type": "Feature", "properties": {"Program Name": "Blue Mountain Heart to Heart - Kennewick", "Street Address 1": "8154 Gage Blvd", "City": "Kennewick", "State": "WA", "Zip": "99336", "Phone": "509-529-4744"}, "geometry": {"type": "Point", "coordinates": [-119.1772787, 46.2097625]}}, {"id": "933", "type": "Feature", "properties": {"Program Name": "Blue Mountain Heart to Heart - Walla Walla", "Street Address 1": "1520 Kelly Place", "City": "Walla Walla", "State": "WA", "Zip": "99362", "Phone": "509-529-4744"}, "geometry": {"type": "Point", "coordinates": [-118.3377489, 46.0625736]}}, {"id": "954", "type": "Feature", "properties": {"Program Name": "Providence Spokane Teaching Health Clinic", "Street Address 1": "624 E Front Ave", "City": "Spokane", "State": "WA", "Zip": "99202", "Phone": "5096269900"}, "geometry": {"type": "Point", "coordinates": [-117.38497, 47.657214]}}, {"id": "955", "type": "Feature", "properties": {"Program Name": "M.H.A SPEAKOUT SPEAKUP ", "Street Address 1": "Online appointments for delivery ", "City": "Spokane ", "State": "WA", "Zip": "99207", "Phone": "5093855286"}, "geometry": {"type": "Point", "coordinates": [-117.387659, 47.686036]}}, {"id": "956", "type": "Feature", "properties": {"Program Name": "University of Washington Youth Clinic", "Street Address 1": "1000 Auburn Way S", "City": "Auburn", "State": "WA", "Zip": "98002", "Phone": "2532751632"}, "geometry": {"type": "Point", "coordinates": [-122.2202561, 47.3077398]}}, {"id": "957", "type": "Feature", "properties": {"Program Name": "Ostrich Bay Exchange", "Street Address 1": null, "City": "Bremerton", "State": "WA", "Zip": "98312", "Phone": "2534706534"}, "geometry": {"type": "Point", "coordinates": [-122.6961203, 47.5759584]}}, {"id": "958", "type": "Feature", "properties": {"Program Name": "OK Cope", "Street Address 1": "1003 Koala Dr", "City": "Omak", "State": "WA", "Zip": "98841", "Phone": "5095887925"}, "geometry": {"type": "Point", "coordinates": [-119.505365, 48.416755]}}, {"id": "959", "type": "Feature", "properties": {"Program Name": "Tri County Opioid Network ", "Street Address 1": "1200 E Columbia Ave", "City": "Colville ", "State": "Wa", "Zip": "99114", "Phone": "5096854015"}, "geometry": {"type": "Point", "coordinates": [-117.885418, 48.541035]}}, {"id": "961", "type": "Feature", "properties": {"Program Name": "M.H.A. SPEAKOUT SPEAKUP", "Street Address 1": "418 E PACIFIC AVE", "City": "Spokane", "State": "WA", "Zip": "99202", "Phone": "5093855286"}, "geometry": {"type": "Point", "coordinates": [-117.38497, 47.657214]}}, {"id": "964", "type": "Feature", "properties": {"Program Name": "Lummi HARM Reduction", "Street Address 1": "2592 Kwina Road ", "City": "Bellingham", "State": "WA", "Zip": "98225", "Phone": "3603252779"}, "geometry": {"type": "Point", "coordinates": [-122.48838, 48.740767]}}, {"id": "965", "type": "Feature", "properties": {"Program Name": "Clallam County Syringe Services", "Street Address 1": "111 E 3rd St", "City": "Port Angeles", "State": "WA ", "Zip": "98362", "Phone": " RN"}, "geometry": {"type": "Point", "coordinates": [-123.4031294, 48.1009483]}}, {"id": "966", "type": "Feature", "properties": {"Program Name": "Clallam County Syringe Services", "Street Address 1": "140 C St SW", "City": "Forks ", "State": "WA ", "Zip": "98331", "Phone": " RN"}, "geometry": {"type": "Point", "coordinates": [-124.4071496, 47.9369889]}}, {"id": "975", "type": "Feature", "properties": {"Program Name": "Jefferson County Public Health Syringe Exchange", "Street Address 1": "615 Sheridan St", "City": "Port Townsend", "State": "WA ", "Zip": "98368", "Phone": "360-385-9400"}, "geometry": {"type": "Point", "coordinates": [-122.7862046, 48.1129794]}}, {"id": "978", "type": "Feature", "properties": {"Program Name": "Okanogan County Public Health Syringe Exchange", "Street Address 1": "1234 S 2nd Ave", "City": "Okanogan", "State": "WA ", "Zip": "98840", "Phone": "509-422-7158"}, "geometry": {"type": "Point", "coordinates": [-119.6101253, 48.3345896]}}, {"id": "979", "type": "Feature", "properties": {"Program Name": "Phoenix Recovery Services Syringe Exchange", "Street Address 1": "2000 Hospital Dr", "City": "Sedro Woolley", "State": "WA ", "Zip": "98284", "Phone": "360-848-8437 ext. 319 / 800-840-1583"}, "geometry": {"type": "Point", "coordinates": [-122.206642, 48.532503]}}, {"id": "980", "type": "Feature", "properties": {"Program Name": "Phoenix Recovery Services Syringe Exchange", "Street Address 1": "715 Pacific St", "City": "Sedro Woolley", "State": "WA ", "Zip": "98284", "Phone": "360-848-8437 ext. 319 / 800-840-1583"}, "geometry": {"type": "Point", "coordinates": [-122.206642, 48.532503]}}, {"id": "981", "type": "Feature", "properties": {"Program Name": "Phoenix Recovery Services Syringe Exchange", "Street Address 1": "701 E Fairhaven Ave", "City": "Burlington", "State": "WA ", "Zip": "98233", "Phone": "360-848-8437 ext. 319 / 800-840-1583"}, "geometry": {"type": "Point", "coordinates": [-122.3346525, 48.4770496]}}, {"id": "982", "type": "Feature", "properties": {"Program Name": "Phoenix Recovery Services Syringe Exchange", "Street Address 1": "45821 Railroad Ave", "City": "Concrete", "State": "WA ", "Zip": "98237", "Phone": "360-848-8437 ext. 319 / 800-840-1583"}, "geometry": {"type": "Point", "coordinates": [-121.7600599, 48.5184445]}}, {"id": "983", "type": "Feature", "properties": {"Program Name": "Phoenix Recovery Services Syringe Exchange", "Street Address 1": "3001 R Ave", "City": "Anacortes", "State": "WA ", "Zip": "98221", "Phone": "360-848-8437 ext. 319 / 800-840-1583"}, "geometry": {"type": "Point", "coordinates": [-122.6330168, 48.4948674]}}, {"id": "985", "type": "Feature", "properties": {"Program Name": "South King County Mobile Medical Unit", "Street Address 1": "220 4th Ave S", "City": "Kent", "State": "WA ", "Zip": "98032", "Phone": "206-915-4809"}, "geometry": {"type": "Point", "coordinates": [-122.2612577, 47.3821912]}}, {"id": "987", "type": "Feature", "properties": {"Program Name": "Thurston County Public Health Syringe Exchange", "Street Address 1": "1000 Cherry St SE", "City": "Olympia", "State": "WA ", "Zip": "98501", "Phone": "360-490-9155"}, "geometry": {"type": "Point", "coordinates": [-122.8733203, 47.0133209]}}, {"id": "990", "type": "Feature", "properties": {"Program Name": "Yakima County Syringe Exchange Program", "Street Address 1": "E Adams St & 3rd St", "City": "Yakima", "State": "WA ", "Zip": "98901", "Phone": "509-249-6546"}, "geometry": {"type": "Point", "coordinates": [-120.4688751, 46.6046178]}}, {"id": "992", "type": "Feature", "properties": {"Program Name": "Gwayakobimaadiziwin Bad River Needle Exchange", "Street Address 1": "601 Main Street", "City": "Odanah-Ashland ", "State": "WI", "Zip": "54806", "Phone": " babiwash@gmail.com / aconbr@yahoo.com"}, "geometry": {"type": "Point", "coordinates": [-90.9062713, 46.5757252]}}, {"id": "993", "type": "Feature", "properties": {"Program Name": "Gwayakobimaadiziwin Bad River Needle Exchange", "Street Address 1": "85450 Co Highway J", "City": "Odanah-Ashland ", "State": "WI", "Zip": "54814", "Phone": " babiwash@gmail.com / aconbr@yahoo.com"}, "geometry": {"type": "Point", "coordinates": [-90.823664, 46.8438107]}}, {"id": "994", "type": "Feature", "properties": {"Program Name": "Gwayakobimaadiziwin Bad River Needle Exchange", "Street Address 1": "300 Taconite Street", "City": "Odanah-Ashland ", "State": "WI", "Zip": "54534", "Phone": " babiwash@gmail.com / aconbr@yahoo.com"}, "geometry": {"type": "Point", "coordinates": [-90.200903, 46.436602]}}, {"id": "995", "type": "Feature", "properties": {"Program Name": "Vivent Health (formerly AIDS Resource Center of WI)", "Street Address 1": "633C W Wisconsin Ave", "City": "Appleton", "State": "WI", "Zip": "54911", "Phone": " Kristen.Grimes@arcw.org"}, "geometry": {"type": "Point", "coordinates": [-88.393599, 44.273769]}}, {"id": "996", "type": "Feature", "properties": {"Program Name": "Vivent Health (formerly AIDS Resource Center of WI)", "Street Address 1": "136 W Grand Ave", "City": "Beloit", "State": "WI", "Zip": "53511", "Phone": " Kristen.Grimes@arcw.org"}, "geometry": {"type": "Point", "coordinates": [-89.0445473, 42.5337916]}}, {"id": "997", "type": "Feature", "properties": {"Program Name": "Vivent Health (formerly AIDS Resource Center of WI)", "Street Address 1": "505 Dewey St South", "City": "Eau Claire", "State": "WI", "Zip": "54701", "Phone": " Kristen.Grimes@arcw.org"}, "geometry": {"type": "Point", "coordinates": [-91.48198, 44.782953]}}, {"id": "998", "type": "Feature", "properties": {"Program Name": "Vivent Health (formerly AIDS Resource Center of WI)", "Street Address 1": "1212 57th St", "City": "Kenosha", "State": "WI", "Zip": "53140", "Phone": " Kristen.Grimes@arcw.org"}, "geometry": {"type": "Point", "coordinates": [-87.831867, 42.607046]}}, {"id": "999", "type": "Feature", "properties": {"Program Name": "Vivent Health (formerly AIDS Resource Center of WI)", "Street Address 1": "811 Rose St", "City": "La Crosse", "State": "WI", "Zip": "54603", "Phone": " Kristen.Grimes@arcw.org"}, "geometry": {"type": "Point", "coordinates": [-91.2493028, 43.8464854]}}, {"id": "1000", "type": "Feature", "properties": {"Program Name": "Vivent Health (formerly AIDS Resource Center of WI)", "Street Address 1": "600 Williamson Street", "City": "Madison", "State": "WI", "Zip": "53703", "Phone": " Kristen.Grimes@arcw.org"}, "geometry": {"type": "Point", "coordinates": [-89.382575, 43.077839]}}, {"id": "1001", "type": "Feature", "properties": {"Program Name": "Vivent Health (formerly AIDS Resource Center of WI)", "Street Address 1": "820 N Plankinton Ave", "City": "Milwaukee", "State": "WI", "Zip": "53203", "Phone": " Kristen.Grimes@arcw.org"}, "geometry": {"type": "Point", "coordinates": [-87.914788, 43.038799]}}, {"id": "1002", "type": "Feature", "properties": {"Program Name": "Vivent Health (formerly AIDS Resource Center of WI)", "Street Address 1": "1507 Tower Avenue", "City": "Superior", "State": "WI", "Zip": "54880", "Phone": " Kristen.Grimes@arcw.org"}, "geometry": {"type": "Point", "coordinates": [-92.0950727, 46.6997468]}}, {"id": "1003", "type": "Feature", "properties": {"Program Name": "Vivent Health (formerly AIDS Resource Center of WI)", "Street Address 1": "1105 Grand Ave", "City": "Wausau", "State": "WI", "Zip": "54476", "Phone": " Kristen.Grimes@arcw.org"}, "geometry": {"type": "Point", "coordinates": [-89.5688901, 44.9065472]}}, {"id": "1004", "type": "Feature", "properties": {"Program Name": "Public Health Madison & Dane County Syringe Service Program", "Street Address 1": "2705 E. Washington Ave.", "City": "Madison", "State": "WI", "Zip": "53704", "Phone": "6082664821"}, "geometry": {"type": "Point", "coordinates": [-89.34999, 43.126516]}}, {"id": "1006", "type": "Feature", "properties": {"Program Name": "Vivent Health (formerly AIDS Resource Center of WI)", "Street Address 1": "445 S Adams St", "City": "Green Bay", "State": "WI ", "Zip": "54301", "Phone": " Kristen.Grimes@arcw.org"}, "geometry": {"type": "Point", "coordinates": [-88.012832, 44.488031]}}, {"id": "1008", "type": "Feature", "properties": {"Program Name": "Hampshire County Health Department Harm Reduction Program", "Street Address 1": "16189 Northwestern Pike", "City": "Augusta", "State": "WV", "Zip": "26704", "Phone": "304-496-9640 and 304-496-9641"}, "geometry": {"type": "Point", "coordinates": [-78.5930261, 39.2644574]}}, {"id": "1009", "type": "Feature", "properties": {"Program Name": "Harrison Harm Reduction Program ", "Street Address 1": "330 W Main St", "City": "Clarksburg", "State": "WV", "Zip": "26301", "Phone": "304-623-9308"}, "geometry": {"type": "Point", "coordinates": [-80.34702, 39.2820283]}}, {"id": "1010", "type": "Feature", "properties": {"Program Name": "Lewis County Health Department Harm Reduction Program", "Street Address 1": "125 Court Ave", "City": "Weston", "State": "WV", "Zip": "26452", "Phone": "304-269-8218"}, "geometry": {"type": "Point", "coordinates": [-80.473294, 39.032978]}}, {"id": "1011", "type": "Feature", "properties": {"Program Name": "Marion County Health Department", "Street Address 1": "300 2nd St", "City": "Fairmont", "State": "WV", "Zip": "26554", "Phone": "304-366-3360"}, "geometry": {"type": "Point", "coordinates": [-80.1484295, 39.4592691]}}, {"id": "1012", "type": "Feature", "properties": {"Program Name": "Milan Puskar Health Right", "Street Address 1": "341 Spruce Street", "City": "Morgantown", "State": "WV", "Zip": "26505", "Phone": " ljones@mphealthright.org; Emily Baldwin"}, "geometry": {"type": "Point", "coordinates": [-79.9524972, 39.6461692]}}, {"id": "1013", "type": "Feature", "properties": {"Program Name": "Milan Puskar Health Right", "Street Address 1": "202 Tunnelton St", "City": "Kingwood", "State": "WV", "Zip": "26537", "Phone": " ljones@mphealthright.org; Emily Baldwin"}, "geometry": {"type": "Point", "coordinates": [-79.7086605, 39.4815459]}}, {"id": "1014", "type": "Feature", "properties": {"Program Name": "Milan Puskar Health Right", "Street Address 1": "47 Cleveland Street", "City": "Buckhannon", "State": "WV", "Zip": "26201", "Phone": " ljones@mphealthright.org; Emily Baldwin"}, "geometry": {"type": "Point", "coordinates": [-80.2108126, 38.9928484]}}, {"id": "1015", "type": "Feature", "properties": {"Program Name": "Morgantown Sober Living", "Street Address 1": "206 Spruce Street", "City": "Morgantown", "State": "WV", "Zip": "26505", "Phone": " doug.leech@morgantownsoberliving.com"}, "geometry": {"type": "Point", "coordinates": [-79.9524972, 39.6461692]}}, {"id": "1016", "type": "Feature", "properties": {"Program Name": "Ohio Valley Harm Reduction Coalition", "Street Address 1": "100 N Court St", "City": "New Cumberland", "State": "WV", "Zip": "26047", "Phone": "304-564-3343"}, "geometry": {"type": "Point", "coordinates": [-80.5934851, 40.5244705]}}, {"id": "1017", "type": "Feature", "properties": {"Program Name": "Ohio Valley Harm Reduction Coalition", "Street Address 1": "401 Commerce St", "City": "Wellsburg", "State": "WV", "Zip": "26070", "Phone": "304-737-3665"}, "geometry": {"type": "Point", "coordinates": [-80.5919629, 40.2681526]}}, {"id": "1018", "type": "Feature", "properties": {"Program Name": "Ohio Valley Harm Reduction Coalition", "Street Address 1": "1151 Washingon St", "City": "Newell", "State": "WV", "Zip": "26050", "Phone": "304-564-3343"}, "geometry": {"type": "Point", "coordinates": [-80.608117, 40.6163996]}}, {"id": "1019", "type": "Feature", "properties": {"Program Name": "Ohio Valley Harm Reduction Coalition", "Street Address 1": "371 Carolina Ave", "City": "Chester ", "State": "WV", "Zip": "26034", "Phone": "304-564-3343"}, "geometry": {"type": "Point", "coordinates": [-80.5474634, 40.601278]}}, {"id": "1020", "type": "Feature", "properties": {"Program Name": "Ohio Valley Harm Reduction Coalition", "Street Address 1": "616 Pyramus Rd", "City": "Chester ", "State": "WV", "Zip": "26034", "Phone": "304-564-3343"}, "geometry": {"type": "Point", "coordinates": [-80.5474634, 40.601278]}}, {"id": "1022", "type": "Feature", "properties": {"Program Name": "Wheeling-Ohio County Health Department Needle Exchange Program", "Street Address 1": "2121 Eoff Street", "City": "Wheeling", "State": "WV", "Zip": "26003", "Phone": "304-234-3682"}, "geometry": {"type": "Point", "coordinates": [-80.6845546, 40.0729794]}}, {"id": "1023", "type": "Feature", "properties": {"Program Name": "Wheeling-Ohio County Health Department Needle Exchange Program", "Street Address 1": "1500 Chapline St", "City": "Wheeling", "State": "WV", "Zip": "26003", "Phone": "304-234-3682"}, "geometry": {"type": "Point", "coordinates": [-80.6845546, 40.0729794]}}, {"id": "1024", "type": "Feature", "properties": {"Program Name": "WV Health Right Needle Exchange", "Street Address 1": "1520 Washington St E", "City": "Charleston", "State": "WV", "Zip": "25311", "Phone": "304-343-7000"}, "geometry": {"type": "Point", "coordinates": [-81.5864435, 38.3562981]}}, {"id": "1025", "type": "Feature", "properties": {"Program Name": "Wyoming County Harm Reduction", "Street Address 1": "44 Cedar Ave", "City": "Pineville", "State": "WV", "Zip": "24874", "Phone": "304-732-7941"}, "geometry": {"type": "Point", "coordinates": [-81.5410037, 37.6092583]}}, {"id": "1030", "type": "Feature", "properties": {"Program Name": "Tillamook County Harm Reduction & Syringe Services Program ", "Street Address 1": "Ivy Wellness Center", "City": "Tillamook ", "State": "OR", "Zip": "97141", "Phone": "5038423900"}, "geometry": {"type": "Point", "coordinates": [-123.8439435, 45.452241]}}, {"id": "1032", "type": "Feature", "properties": {"Program Name": "Harm Reduction Program", "Street Address 1": "14150 Hamilton Lake Rd.", "City": "Newberry", "State": "MI", "Zip": "49862", "Phone": "9063224444"}, "geometry": {"type": "Point", "coordinates": [-86.663445, 46.417236]}}, {"id": "1033", "type": "Feature", "properties": {"Program Name": "Harm Reduction", "Street Address 1": "749 Hombach Street", "City": "St. Ignace", "State": "MI", "Zip": "49781", "Phone": "9063224444"}, "geometry": {"type": "Point", "coordinates": [-84.7322091, 45.8827175]}}, {"id": "1034", "type": "Feature", "properties": {"Program Name": "Harm Reduction", "Street Address 1": "E9526 Prospect Street", "City": "Munising", "State": "MI", "Zip": "49862", "Phone": "9063224444"}, "geometry": {"type": "Point", "coordinates": [-86.663445, 46.417236]}}, {"id": "1036", "type": "Feature", "properties": {"Program Name": "North Central Ohio Harm Reduction", "Street Address 1": null, "City": "Mansfield ", "State": "OH", "Zip": "44903", "Phone": null}, "geometry": {"type": "Point", "coordinates": [-82.5217763, 40.7724653]}}, {"id": "1038", "type": "Feature", "properties": {"Program Name": "Arlington Addiction Recovery Initiative (AARI)", "Street Address 1": "2120 Washington Blvd", "City": "Arlington", "State": "VA", "Zip": "22204", "Phone": null}, "geometry": {"type": "Point", "coordinates": [-77.098606, 38.859057]}}, {"id": "1039", "type": "Feature", "properties": {"Program Name": "STEP", "Street Address 1": "311 E Court St ", "City": "Flint", "State": "MI", "Zip": "48502", "Phone": "8102320888"}, "geometry": {"type": "Point", "coordinates": [-83.6905, 43.017295]}}, {"id": "1040", "type": "Feature", "properties": {"Program Name": "Hill County Health Department (HCHD)", "Street Address 1": "302 4th ave", "City": "Havre", "State": "MT", "Zip": "59501", "Phone": "4064002415"}, "geometry": {"type": "Point", "coordinates": [-109.712532, 48.556842]}}, {"id": "1041", "type": "Feature", "properties": {"Program Name": "Kenneth Young Center", "Street Address 1": "650 E. Algonquin Rd ", "City": "Schaumburg", "State": "IL", "Zip": "60173", "Phone": "2242297456"}, "geometry": {"type": "Point", "coordinates": [-88.0499416, 42.050165]}}, {"id": "1044", "type": "Feature", "properties": {"Program Name": "Sixteenth Street Needle Exchange Program", "Street Address 1": "1243 S Cesar E Chavez Dr", "City": "Milwaukee", "State": "WI", "Zip": "53204", "Phone": " HCV & Harm Reduction Navigator"}, "geometry": {"type": "Point", "coordinates": [-87.925333, 43.01681]}}, {"id": "1045", "type": "Feature", "properties": {"Program Name": "Rite Life Services ", "Street Address 1": "6646 S US Highway 1", "City": "Port St. Lucie", "State": "FL", "Zip": "34952", "Phone": "5615031323"}, "geometry": {"type": "Point", "coordinates": [-80.29838, 27.291479]}}, {"id": "1049", "type": "Feature", "properties": {"Program Name": "Dutchess County Behavioral and Community Health", "Street Address 1": "230 North Road", "City": "Poughkeepsie", "State": "NY", "Zip": "12601", "Phone": "8454862844"}, "geometry": {"type": "Point", "coordinates": [-73.9212811, 41.6974592]}}, {"id": "1053", "type": "Feature", "properties": {"Program Name": "CVS at Rhode Island Row", "Street Address 1": "2350 Washington Place NE", "City": "Washington", "State": "DC", "Zip": "20018", "Phone": null}, "geometry": {"type": "Point", "coordinates": [-76.977737, 38.929044]}}, {"id": "1054", "type": "Feature", "properties": {"Program Name": "CVS @ 12th St NE (Brookland)", "Street Address 1": "3601 12th St NE", "City": "Washington", "State": "DC", "Zip": "20017", "Phone": null}, "geometry": {"type": "Point", "coordinates": [-76.9933391, 38.9362877]}}, {"id": "1120", "type": "Feature", "properties": {"Program Name": "Mary's Center - Petworth Clinic", "Street Address 1": "3912 Georgia Ave NW", "City": "Washington", "State": "DC", "Zip": "20011", "Phone": "2022531150"}, "geometry": {"type": "Point", "coordinates": [-77.020921, 38.952032]}}, {"id": "1123", "type": "Feature", "properties": {"Program Name": "Mary's Center - Fort Totten Clinic", "Street Address 1": "100 Gallatin St NE", "City": "Washington", "State": "DC", "Zip": "20011", "Phone": "2022531150"}, "geometry": {"type": "Point", "coordinates": [-77.020921, 38.952032]}}, {"id": "1126", "type": "Feature", "properties": {"Program Name": "Mary's Center - Adams Morgan Clinic", "Street Address 1": "1707 Kalorama Rd NW", "City": "Washington", "State": "DC", "Zip": "20009", "Phone": "2022531150"}, "geometry": {"type": "Point", "coordinates": [-77.0370773, 38.9197632]}}, {"id": "1129", "type": "Feature", "properties": {"Program Name": "Bread for the City - NW Center", "Street Address 1": "1525 7th St NW ", "City": "Washington", "State": "DC", "Zip": "20001", "Phone": "2022652400"}, "geometry": {"type": "Point", "coordinates": [-77.017104, 38.907227]}}, {"id": "1132", "type": "Feature", "properties": {"Program Name": "Bread for the City - SE Center", "Street Address 1": "1700 Good Hope Rd SE", "City": "Washington", "State": "DC", "Zip": "20020", "Phone": "2025618587"}, "geometry": {"type": "Point", "coordinates": [-76.9712259, 38.8596582]}}, {"id": "1135", "type": "Feature", "properties": {"Program Name": "Harm Reduction at Westminster", "Street Address 1": "400 I St SW", "City": "Washington", "State": "DC", "Zip": "20024", "Phone": "2029780517"}, "geometry": {"type": "Point", "coordinates": [-77.0176293, 38.8776238]}}, {"id": "1139", "type": "Feature", "properties": {"Program Name": "The Emerald Coast Life Center", "Street Address 1": "Mobile Unit", "City": "Crestview", "State": "FL", "Zip": "32536", "Phone": "8506125640"}, "geometry": {"type": "Point", "coordinates": [-86.576378, 30.759627]}}, {"id": "1140", "type": "Feature", "properties": {"Program Name": "The Phoenix Center", "Street Address 1": "1400 Cleveland St.", "City": "Greenville ", "State": "SC", "Zip": "29607", "Phone": "864-982-2364"}, "geometry": {"type": "Point", "coordinates": [-82.342339, 34.8218959]}}, {"id": "1144", "type": "Feature", "properties": {"Program Name": "Spring Hill Wellness NY ", "Street Address 1": "4105 Avenue V", "City": "Brooklyn", "State": "NY", "Zip": "11234", "Phone": "7186891313"}, "geometry": {"type": "Point", "coordinates": [-73.920613, 40.619326]}}, {"id": "1147", "type": "Feature", "properties": {"Program Name": "The Pride Center of Maryland", "Street Address 1": "2418 St Paul St", "City": "Baltimore", "State": "MD", "Zip": "21218", "Phone": null}, "geometry": {"type": "Point", "coordinates": [-76.609435, 39.32551]}}, {"id": "1148", "type": "Feature", "properties": {"Program Name": "Seneca Health Services West Virginia State Opioid Response Grant", "Street Address 1": "131 Wellness Drive ", "City": "Summersville", "State": "WV", "Zip": "26651", "Phone": " RN"}, "geometry": {"type": "Point", "coordinates": [-80.8427893, 38.3010683]}}, {"id": "1155", "type": "Feature", "properties": {"Program Name": "Project Punto De Partida", "Street Address 1": "1201 E. Yandell Dr.", "City": "El Paso", "State": "TX", "Zip": "79912", "Phone": "9154792705"}, "geometry": {"type": "Point", "coordinates": [-106.537372, 31.842012]}}, {"id": "1157", "type": "Feature", "properties": {"Program Name": "STEP ", "Street Address 1": "311 E. Court St", "City": "Flint", "State": "MI", "Zip": "48502", "Phone": "8102320888"}, "geometry": {"type": "Point", "coordinates": [-83.6905, 43.017295]}}, {"id": "1159", "type": "Feature", "properties": {"Program Name": "DISC Village", "Street Address 1": "305 W Crawford St. Suite B", "City": "Quincy", "State": "FL", "Zip": "32351", "Phone": "8506273599"}, "geometry": {"type": "Point", "coordinates": [-84.6251326, 30.5598285]}}, {"id": "1160", "type": "Feature", "properties": {"Program Name": "Rainbow Rose Coalition", "Street Address 1": null, "City": "Richmond In", "State": "IN", "Zip": "47374", "Phone": null}, "geometry": {"type": "Point", "coordinates": [-84.88908, 39.832091]}}, {"id": "1164", "type": "Feature", "properties": {"Program Name": "Recovery Opioid Overdose Team (ROOT)", "Street Address 1": "555 Towner", "City": "Ypsilanti", "State": "MI", "Zip": "48197", "Phone": "7349751602"}, "geometry": {"type": "Point", "coordinates": [-83.6302, 42.231396]}}, {"id": "1165", "type": "Feature", "properties": {"Program Name": "Recovery Opioid Overdose Team (ROOT)", "Street Address 1": "343 S. 5th Ave", "City": "Ann Arbor", "State": "MI", "Zip": "48104", "Phone": "7349751602"}, "geometry": {"type": "Point", "coordinates": [-83.7271293, 42.2670068]}}, {"id": "1166", "type": "Feature", "properties": {"Program Name": "Sacred Heart Recovery Center", "Street Address 1": "248 Ferry Lane", "City": "St Ignace", "State": "MI", "Zip": "49781", "Phone": "9069842080"}, "geometry": {"type": "Point", "coordinates": [-84.7322091, 45.8827175]}}, {"id": "1167", "type": "Feature", "properties": {"Program Name": "Albertus Project ", "Street Address 1": null, "City": "Manassas", "State": "VA", "Zip": "20110", "Phone": "5715100638"}, "geometry": {"type": "Point", "coordinates": [-77.478839, 38.7515731]}}, {"id": "1168", "type": "Feature", "properties": {"Program Name": "Revive Center for Housing and Healing", "Street Address 1": "1668 west ogden ave", "City": "chicago", "State": "IL", "Zip": "60612", "Phone": "3129972222"}, "geometry": {"type": "Point", "coordinates": [-87.6864906, 41.8794049]}}, {"id": "1169", "type": "Feature", "properties": {"Program Name": "Project RED", "Street Address 1": "909 NW 24th Ave", "City": "Portland", "State": "OR", "Zip": "97210", "Phone": null}, "geometry": {"type": "Point", "coordinates": [-122.707927, 45.532214]}}, {"id": "1171", "type": "Feature", "properties": {"Program Name": "Bakersfield Recovery Services (BRS)", "Street Address 1": "531 Knotts Street", "City": "Bakersfield", "State": "CA", "Zip": "93305", "Phone": "6613251817"}, "geometry": {"type": "Point", "coordinates": [-118.982902, 35.389794]}}, {"id": "1183", "type": "Feature", "properties": {"Program Name": "Butte Syringe Services Program", "Street Address 1": "25 W Front St", "City": "Butte", "State": "MT", "Zip": "59701", "Phone": "4064975080"}, "geometry": {"type": "Point", "coordinates": [-112.52268, 45.9921977]}}, {"id": "1186", "type": "Feature", "properties": {"Program Name": "West Holt Pharmacy", "Street Address 1": "313 W. Pearl Street", "City": "Atkinson", "State": "Nebraska", "Zip": "68713", "Phone": " Prevention System Administrator"}, "geometry": {"type": "Point", "coordinates": [-98.9651365, 42.5266039]}}, {"id": "1192", "type": "Feature", "properties": {"Program Name": "Nein Pharmacy", "Street Address 1": "1012 Main Street", "City": "Bridgeport", "State": "Nebraska", "Zip": "69336", "Phone": " Prevention System Administrator"}, "geometry": {"type": "Point", "coordinates": [-103.0981862, 41.6676871]}}, {"id": "1195", "type": "Feature", "properties": {"Program Name": "Burwell Pharmacy", "Street Address 1": "137 Grand Avenue", "City": "Burwell", "State": "Nebraska", "Zip": "68823", "Phone": " Prevention System Administrator"}, "geometry": {"type": "Point", "coordinates": [-99.1904583, 41.8304844]}}, {"id": "1196", "type": "Feature", "properties": {"Program Name": "Marks U-save", "Street Address 1": "624 Patterson", "City": "Cambridge", "State": "Nebraska", "Zip": "69022", "Phone": " Prevention System Administrator"}, "geometry": {"type": "Point", "coordinates": [-100.1716485, 40.2845573]}}, {"id": "1199", "type": "Feature", "properties": {"Program Name": "Our Town Pharmacy", "Street Address 1": "733 2nd Street", "City": "Chappell", "State": "Nebraska", "Zip": "69129", "Phone": " Prevention System Administrator"}, "geometry": {"type": "Point", "coordinates": [-102.4695473, 41.0979497]}}, {"id": "1207", "type": "Feature", "properties": {"Program Name": "Grant Pharmacy", "Street Address 1": "218 Central Avenue", "City": "Grant", "State": "Nebraska", "Zip": "69140", "Phone": " Prevention System Administrator"}, "geometry": {"type": "Point", "coordinates": [-101.7275358, 40.8502194]}}, {"id": "1209", "type": "Feature", "properties": {"Program Name": "Dave\u2019s Pharmacy", "Street Address 1": "508 Niobrara Avenue", "City": "Hemingford", "State": "Nebraska", "Zip": "69348", "Phone": " Prevention System Administrator"}, "geometry": {"type": "Point", "coordinates": [-103.074271, 42.320018]}}, {"id": "1210", "type": "Feature", "properties": {"Program Name": "Henderson Pharmacy", "Street Address 1": "1060 N. Main Street", "City": "Henderson", "State": "Nebraska", "Zip": "68371", "Phone": " Prevention System Administrator"}, "geometry": {"type": "Point", "coordinates": [-97.8147649, 40.7818889]}}, {"id": "1213", "type": "Feature", "properties": {"Program Name": "Valley Pharmacy", "Street Address 1": "211 West 33rd Street", "City": "Kearney", "State": "Nebraska", "Zip": "68845", "Phone": " Prevention System Administrator"}, "geometry": {"type": "Point", "coordinates": [-99.1144839, 40.7101889]}}, {"id": "1221", "type": "Feature", "properties": {"Program Name": "Super Saver #4", "Street Address 1": "233 N. 48th Street", "City": "Lincoln", "State": "Nebraska", "Zip": "68504", "Phone": " Prevention System Administrator"}, "geometry": {"type": "Point", "coordinates": [-96.659771, 40.848443]}}, {"id": "1222", "type": "Feature", "properties": {"Program Name": "Loup City RX Shoppe", "Street Address 1": "133 S. 7th Street", "City": "Loup City", "State": "Nebraska", "Zip": "68853", "Phone": " Prevention System Administrator"}, "geometry": {"type": "Point", "coordinates": [-98.957623, 41.276673]}}, {"id": "1223", "type": "Feature", "properties": {"Program Name": "Farrell\u2019s Pharmacy", "Street Address 1": "120 West B Street", "City": "McCook", "State": "Nebraska", "Zip": "69001", "Phone": " Prevention System Administrator"}, "geometry": {"type": "Point", "coordinates": [-100.6342319, 40.2052145]}}, {"id": "1237", "type": "Feature", "properties": {"Program Name": "CHI Pharmacy \u2013 Florence", "Street Address 1": "8613 N. 30th Street", "City": "Omaha", "State": "Nebraska", "Zip": "68112", "Phone": " Prevention System Administrator"}, "geometry": {"type": "Point", "coordinates": [-95.960912, 41.340098]}}, {"id": "1241", "type": "Feature", "properties": {"Program Name": "Kohll\u2019s Rx", "Street Address 1": "5002 Dodge Street", "City": "Omaha", "State": "Nebraska", "Zip": "68132", "Phone": " Prevention System Administrator"}, "geometry": {"type": "Point", "coordinates": [-95.998303, 41.26642]}}, {"id": "1245", "type": "Feature", "properties": {"Program Name": "Neb Medicine Pharmacy @ Lauritzen Outpatient", "Street Address 1": "4014 Leavenworth Street", "City": "Omaha", "State": "Nebraska", "Zip": "68105", "Phone": " Prevention System Administrator"}, "geometry": {"type": "Point", "coordinates": [-95.966194, 41.24511]}}, {"id": "1247", "type": "Feature", "properties": {"Program Name": "Via Rx", "Street Address 1": "825 N 90th Street", "City": "Omaha", "State": "Nebraska", "Zip": "68114", "Phone": " Prevention System Administrator"}, "geometry": {"type": "Point", "coordinates": [-96.0498207, 41.264926]}}, {"id": "1251", "type": "Feature", "properties": {"Program Name": "Plainview Family Pharmacy", "Street Address 1": "103 S. Main Street", "City": "Plainview", "State": "Nebraska", "Zip": "68769", "Phone": " Prevention System Administrator"}, "geometry": {"type": "Point", "coordinates": [-97.7958375, 42.351151]}}, {"id": "1262", "type": "Feature", "properties": {"Program Name": "Medicine Man Pharmacy", "Street Address 1": "122 W. 16th Street", "City": "Schuyler", "State": "Nebraska", "Zip": "68661", "Phone": " Prevention System Administrator"}, "geometry": {"type": "Point", "coordinates": [-97.0646717, 41.4536635]}}, {"id": "1263", "type": "Feature", "properties": {"Program Name": "Hy-Vee Pharmacy", "Street Address 1": "500 Plaza Drive", "City": "West Point", "State": "Nebraska", "Zip": "68788", "Phone": " Prevention System Administrator"}, "geometry": {"type": "Point", "coordinates": [-96.7206913, 41.8367455]}}, {"id": "1264", "type": "Feature", "properties": {"Program Name": "Hy-Vee Pharmacy", "Street Address 1": "3410 N. 156th Street", "City": "Omaha", "State": "Nebraska", "Zip": "68116", "Phone": " Prevention System Administrator"}, "geometry": {"type": "Point", "coordinates": [-96.163384, 41.299727]}}, {"id": "1265", "type": "Feature", "properties": {"Program Name": "Pedley Drug", "Street Address 1": "419 N. Colorado Ave", "City": "Minden", "State": "Nebraska", "Zip": "68959", "Phone": " Prevention System Administrator"}, "geometry": {"type": "Point", "coordinates": [-98.939891, 40.498272]}}, {"id": "1267", "type": "Feature", "properties": {"Program Name": "Harm Reduction Circle ", "Street Address 1": "8 Santa Luzia Aisle", "City": "Irvine", "State": "CA", "Zip": "92606", "Phone": "9496598180"}, "geometry": {"type": "Point", "coordinates": [-117.817891, 33.693195]}}, {"id": "1271", "type": "Feature", "properties": {"Program Name": "Urban Alchemy/ LA CIRCLE", "Street Address 1": "1234 Pacific ave", "City": "venice", "State": "CA", "Zip": "90291", "Phone": "6286885840"}, "geometry": {"type": "Point", "coordinates": [-118.465627, 33.992885]}}, {"id": "1272", "type": "Feature", "properties": {"Program Name": "Urban Alchemy/ LA CIRCLE", "Street Address 1": "1718 N. Cherokee", "City": "Hollywood", "State": "CA", "Zip": "90028", "Phone": "6286885840"}, "geometry": {"type": "Point", "coordinates": [-118.328134, 34.100709]}}, {"id": "1275", "type": "Feature", "properties": {"Program Name": "Pontiac Aware ", "Street Address 1": "1319 N. Chicago Street ", "City": "PONTIAC ", "State": "IL", "Zip": "61764", "Phone": "8155798088"}, "geometry": {"type": "Point", "coordinates": [-88.6329904, 40.8811326]}}, {"id": "1278", "type": "Feature", "properties": {"Program Name": "Downtown San Diego Partnership ", "Street Address 1": "410 16th Street", "City": "San Diego", "State": "CA", "Zip": "92101", "Phone": "6192882256"}, "geometry": {"type": "Point", "coordinates": [-117.162222, 32.718814]}}, {"id": "1280", "type": "Feature", "properties": {"Program Name": "Fairfield Behavioral Health Service", "Street Address 1": "178 US Hwy 321 Byp N", "City": "Winnsboro", "State": "SC", "Zip": "29180", "Phone": "8036352335"}, "geometry": {"type": "Point", "coordinates": [-81.100192, 34.364621]}}, {"id": "1283", "type": "Feature", "properties": {"Program Name": "Tennessee Harm Reduction", "Street Address 1": null, "City": "Jackson", "State": "TN", "Zip": "38305", "Phone": "7318030362"}, "geometry": {"type": "Point", "coordinates": [-88.813954, 35.6882065]}}, {"id": "1285", "type": "Feature", "properties": {"Program Name": "Lost Dreams Awaken Center - Harm Reduction for Humanity", "Street Address 1": "408 8th Street", "City": "New Kensington", "State": "PA", "Zip": "15068", "Phone": "7242127899"}, "geometry": {"type": "Point", "coordinates": [-79.7217168, 40.5691629]}}, {"id": "1287", "type": "Feature", "properties": {"Program Name": "Cambria County Drug Coalition", "Street Address 1": "1 Pasquerilla Plaza", "City": "Johnstown", "State": "PA", "Zip": "15901", "Phone": "8146194505"}, "geometry": {"type": "Point", "coordinates": [-78.915157, 40.325809]}}, {"id": "1288", "type": "Feature", "properties": {"Program Name": "Never Share Syringe Services Program", "Street Address 1": "210 N Ruby Street", "City": "Ellensburg", "State": "WA", "Zip": "98926", "Phone": "5098596274"}, "geometry": {"type": "Point", "coordinates": [-120.5264946, 47.005576]}}, {"id": "1290", "type": "Feature", "properties": {"Program Name": "Oklahoma Harm Reduction Alliance (OKHRA)", "Street Address 1": "1622 S Boston Ave", "City": "Tulsa", "State": "OK", "Zip": "74119", "Phone": "5395250553"}, "geometry": {"type": "Point", "coordinates": [-95.9884452, 36.1431042]}}, {"id": "1294", "type": "Feature", "properties": {"Program Name": "Southside Harm Reduction Services (SHRS)", "Street Address 1": "3104 16th Ave S", "City": "Minneapolis", "State": "MN", "Zip": "55407", "Phone": "6126159725- shrs@southsideharmreduction.org"}, "geometry": {"type": "Point", "coordinates": [-93.2537104, 44.9409166]}}, {"id": "1295", "type": "Feature", "properties": {"Program Name": "Hays Pharmacy", "Street Address 1": "706 W. Main Street", "City": "Alma", "State": "Nebraska", "Zip": "68920", "Phone": " Prevention System Administrator"}, "geometry": {"type": "Point", "coordinates": [-99.3600923, 40.1047671]}}, {"id": "1297", "type": "Feature", "properties": {"Program Name": "Elgin Pharmacy", "Street Address 1": "112 South 2nd Street", "City": "Elgin", "State": "Nebraska", "Zip": "68636", "Phone": " Prevention System Administrator"}, "geometry": {"type": "Point", "coordinates": [-98.12769, 41.973314]}}, {"id": "1299", "type": "Feature", "properties": {"Program Name": "Stockmen\u2019s Drug", "Street Address 1": "116 N. Main Street", "City": "Gordon", "State": "Nebraska", "Zip": "69343", "Phone": " Prevention System Administrator"}, "geometry": {"type": "Point", "coordinates": [-102.1993925, 42.8062477]}}, {"id": "1300", "type": "Feature", "properties": {"Program Name": "U-Save Gretna", "Street Address 1": "611 N. Hwy 6", "City": "Gretna", "State": "Nebraska", "Zip": "68028", "Phone": " Prevention System Administrator"}, "geometry": {"type": "Point", "coordinates": [-96.2497023, 41.1311502]}}, {"id": "1302", "type": "Feature", "properties": {"Program Name": "Main Street Apothecary", "Street Address 1": "201 E 2nd Street", "City": "Laurel", "State": "Nebraska", "Zip": "68745", "Phone": " Prevention System Administrator"}, "geometry": {"type": "Point", "coordinates": [-97.0945299, 42.4319469]}}, {"id": "1304", "type": "Feature", "properties": {"Program Name": "Pedley Drug", "Street Address 1": "419 N. Colorado Ave", "City": "Minden", "State": "Nebraska", "Zip": "68959", "Phone": " Prevention System Administrator"}, "geometry": {"type": "Point", "coordinates": [-98.939891, 40.498272]}}, {"id": "1305", "type": "Feature", "properties": {"Program Name": "Hy-Vee Pharmacy", "Street Address 1": "3410 N. 156th Street", "City": "Omaha", "State": "Nebraska", "Zip": "68116", "Phone": " Prevention System Administrator"}, "geometry": {"type": "Point", "coordinates": [-96.163384, 41.299727]}}, {"id": "1307", "type": "Feature", "properties": {"Program Name": "Medicine Man Pharmacy", "Street Address 1": "122 W. 16th Street", "City": "Schuyler", "State": "Nebraska", "Zip": "68661", "Phone": " Prevention System Administrator"}, "geometry": {"type": "Point", "coordinates": [-97.0646717, 41.4536635]}}, {"id": "1308", "type": "Feature", "properties": {"Program Name": "Scribner Drug Store", "Street Address 1": "416 Main Street", "City": "Scribner", "State": "Nebraska", "Zip": "68057", "Phone": " Prevention System Administrator"}, "geometry": {"type": "Point", "coordinates": [-96.6647776, 41.6676593]}}, {"id": "1319", "type": "Feature", "properties": {"Program Name": "Juneau County Sheriff's Department NARCAN\u00ae Direct Program", "Street Address 1": "200 oak st", "City": "Mauston", "State": "WI", "Zip": "53948", "Phone": "6088479430"}, "geometry": {"type": "Point", "coordinates": [-90.0575453, 43.8006796]}}, {"id": "1321", "type": "Feature", "properties": {"Program Name": "Solvista Health", "Street Address 1": "111 Vesta Road", "City": "Salida", "State": "CO", "Zip": "81201", "Phone": "7197922066"}, "geometry": {"type": "Point", "coordinates": [-106.0336233, 38.5265094]}}, {"id": "1324", "type": "Feature", "properties": {"Program Name": "CommuniCare Mental Health Navigation Center", "Street Address 1": "600 A Street", "City": "Davis", "State": "CA", "Zip": "95616", "Phone": "5302049467"}, "geometry": {"type": "Point", "coordinates": [-121.756374, 38.554053]}}, {"id": "1327", "type": "Feature", "properties": {"Program Name": "Evansville Recovery Alliance", "Street Address 1": "101 NW 1st St #213", "City": "Evansville", "State": "IN", "Zip": "47708", "Phone": null}, "geometry": {"type": "Point", "coordinates": [-87.571541, 37.9739259]}}, {"id": "1328", "type": "Feature", "properties": {"Program Name": "Out of Harm's Reach (OOHR)", "Street Address 1": null, "City": "Gainesville ", "State": "FL", "Zip": "32605", "Phone": null}, "geometry": {"type": "Point", "coordinates": [-82.3783827, 29.6766443]}}, {"id": "1331", "type": "Feature", "properties": {"Program Name": "Virginia Beach Harm Reduction Project (VBHRP)", "Street Address 1": "3208 Holland rd ", "City": "Virginia Beach ", "State": "VA", "Zip": "23453", "Phone": "7579852965"}, "geometry": {"type": "Point", "coordinates": [-76.080818, 36.792714]}}, {"id": "1332", "type": "Feature", "properties": {"Program Name": "Cooper County Public Health Center -CCPHC", "Street Address 1": "17040 Klinton Dr.", "City": "Boonville", "State": "MO", "Zip": "65233", "Phone": "6608822626"}, "geometry": {"type": "Point", "coordinates": [-92.7433194, 38.9509981]}}, {"id": "1337", "type": "Feature", "properties": {"Program Name": "MATClinics", "Street Address 1": "40 S Dundalk Ave", "City": "Dundalk", "State": "MD", "Zip": "21222", "Phone": "4439042068"}, "geometry": {"type": "Point", "coordinates": [-76.5078783, 39.2614449]}}, {"id": "1338", "type": "Feature", "properties": {"Program Name": "MATClinics", "Street Address 1": "40 York Road", "City": "Towson", "State": "MD", "Zip": "21204", "Phone": "4439042068"}, "geometry": {"type": "Point", "coordinates": [-76.613415, 39.402831]}}, {"id": "1339", "type": "Feature", "properties": {"Program Name": "MATClinics", "Street Address 1": "107 Ridgely Ave", "City": "Annapolis", "State": "MD", "Zip": "21401", "Phone": "4439042068"}, "geometry": {"type": "Point", "coordinates": [-76.5315346, 38.9854963]}}, {"id": "1340", "type": "Feature", "properties": {"Program Name": "MATClinics", "Street Address 1": "1101 Opal Court", "City": "Hagerstown", "State": "MD", "Zip": "21740", "Phone": "4439042068"}, "geometry": {"type": "Point", "coordinates": [-77.730918, 39.633072]}}, {"id": "1341", "type": "Feature", "properties": {"Program Name": "MATClinics", "Street Address 1": "253 Lewis Lane", "City": "Havre de Grace", "State": "MD", "Zip": "21708", "Phone": "4439042068"}, "geometry": {"type": "Point", "coordinates": [35.292374, 32.90168]}}, {"id": "1342", "type": "Feature", "properties": {"Program Name": "MATClinics", "Street Address 1": "601 7th Street", "City": "Laurel", "State": "MD", "Zip": "20707", "Phone": "4439042068"}, "geometry": {"type": "Point", "coordinates": [-76.8705828, 39.0973927]}}, {"id": "1343", "type": "Feature", "properties": {"Program Name": "MATClinics", "Street Address 1": "659 S. Salisbury Blvd", "City": "Salisbury", "State": "MD", "Zip": "21801", "Phone": "4439042068"}, "geometry": {"type": "Point", "coordinates": [-75.614887, 38.373165]}}, {"id": "1344", "type": "Feature", "properties": {"Program Name": "MATClinics", "Street Address 1": "531 Old Westminster Pike", "City": "Westminster", "State": "MD", "Zip": "21157", "Phone": "4439042068"}, "geometry": {"type": "Point", "coordinates": [-76.988282, 39.555279]}}, {"id": "1345", "type": "Feature", "properties": {"Program Name": "Will Work for Recovery", "Street Address 1": "2520 N 2nd St ", "City": "Minneapolis", "State": "MN", "Zip": "55411", "Phone": "6125214178"}, "geometry": {"type": "Point", "coordinates": [-93.2990329, 44.9995211]}}, {"id": "1347", "type": "Feature", "properties": {"Program Name": "Project Night Light", "Street Address 1": "4212 36th Ave S", "City": "Seattle", "State": "WA", "Zip": "98118", "Phone": "2064923205"}, "geometry": {"type": "Point", "coordinates": [-122.2753318, 47.5411053]}}, {"id": "1351", "type": "Feature", "properties": {"Program Name": "The Council on Chemical Abuse", "Street Address 1": "50 north 5th street", "City": "Reading", "State": "PA", "Zip": "19607", "Phone": "6103768669"}, "geometry": {"type": "Point", "coordinates": [-75.9545154, 40.2978644]}}, {"id": "1352", "type": "Feature", "properties": {"Program Name": "Deschutes County Harm Reduction Program", "Street Address 1": "2577 NE Courtney Drive", "City": "Bend", "State": "OR", "Zip": "97701", "Phone": "5414195728"}, "geometry": {"type": "Point", "coordinates": [-121.2553355, 44.0725453]}}, {"id": "1353", "type": "Feature", "properties": {"Program Name": "Deschutes County Harm Reduction Program", "Street Address 1": "231 NW Idaho Ave", "City": "Bend", "State": "OR", "Zip": "97703", "Phone": "5414195728"}, "geometry": {"type": "Point", "coordinates": [-121.3396524, 44.0900086]}}, {"id": "1363", "type": "Feature", "properties": {"Program Name": "Downtown San Diego Partnership-DSDP ", "Street Address 1": "410 16th Stree", "City": "San Diego", "State": "CA", "Zip": "92101", "Phone": "6192882256"}, "geometry": {"type": "Point", "coordinates": [-117.162222, 32.718814]}}, {"id": "1365", "type": "Feature", "properties": {"Program Name": "St. Joseph's Treatment Centers", "Street Address 1": "190 Main Street", "City": "Tupper Lake", "State": "NY", "Zip": "12986", "Phone": "5188976174"}, "geometry": {"type": "Point", "coordinates": [-74.4669473, 44.2225136]}}, {"id": "1366", "type": "Feature", "properties": {"Program Name": "St. Joseph's Malone Outpatient Clinic", "Street Address 1": "458 East Main Street", "City": "Malone", "State": "NY", "Zip": "12953", "Phone": "5188976174"}, "geometry": {"type": "Point", "coordinates": [-74.2925527, 44.8402335]}}, {"id": "1374", "type": "Feature", "properties": {"Program Name": "Southern Tier Opioid Prevention Program  (STOPP)", "Street Address 1": "150 North Union Street", "City": "Olean", "State": "NY", "Zip": "14760", "Phone": "7163781447"}, "geometry": {"type": "Point", "coordinates": [-78.428757, 42.083524]}}, {"id": "1376", "type": "Feature", "properties": {"Program Name": "Eastern Oregon Center For Independent Living ", "Street Address 1": "322 SW 3rd street", "City": "pendleton", "State": "OR", "Zip": "97801", "Phone": "5417093826"}, "geometry": {"type": "Point", "coordinates": [-118.780562, 45.665095]}}, {"id": "1387", "type": "Feature", "properties": {"Program Name": "Rise Up Recovery", "Street Address 1": "507 Vermillion Street", "City": "Hastings", "State": "MN", "Zip": "55033", "Phone": "6513190122"}, "geometry": {"type": "Point", "coordinates": [-92.8558874, 44.7312763]}}, {"id": "1388", "type": "Feature", "properties": {"Program Name": "New Points Service Syringe Program", "Street Address 1": "540 Depot St.", "City": "Hancock ", "State": "MI", "Zip": "49930", "Phone": "9062815389"}, "geometry": {"type": "Point", "coordinates": [-88.5628898, 47.1415522]}}, {"id": "1389", "type": "Feature", "properties": {"Program Name": "Need 4 Narcan Join Our Mission", "Street Address 1": "16096 Winston Drive", "City": "Oregon City", "State": "OR", "Zip": "97045", "Phone": "5038044514"}, "geometry": {"type": "Point", "coordinates": [-122.5790457, 45.3318233]}}, {"id": "1392", "type": "Feature", "properties": {"Program Name": "The Genesis Center of Winder", "Street Address 1": "206 East Broad Street", "City": "Winder", "State": "GA", "Zip": "30680", "Phone": "6789001579"}, "geometry": {"type": "Point", "coordinates": [-83.709297, 33.996806]}}, {"id": "1394", "type": "Feature", "properties": {"Program Name": "New Points", "Street Address 1": "184 US Hwy 41 East", "City": "Negaunee", "State": "MI", "Zip": "49866", "Phone": "9064640064"}, "geometry": {"type": "Point", "coordinates": [-87.5908263, 46.4991788]}}, {"id": "1395", "type": "Feature", "properties": {"Program Name": "Friends Community Center", "Street Address 1": "6910 Santa Monica Blvd", "City": "Los Angeles", "State": "CA", "Zip": "90038", "Phone": "3234631601"}, "geometry": {"type": "Point", "coordinates": [-118.3248615, 34.0880056]}}, {"id": "1398", "type": "Feature", "properties": {"Program Name": "The NICE (Narcan in Case of Emergency) Project", "Street Address 1": "1413 Webberville Road", "City": "Austin", "State": "TX", "Zip": "78721", "Phone": null}, "geometry": {"type": "Point", "coordinates": [-97.683441, 30.268862]}}, {"id": "1399", "type": "Feature", "properties": {"Program Name": "The NICE (Narcan in Case of Emergency) Project", "Street Address 1": "4430 Menchaca Road", "City": "Austin", "State": "TX", "Zip": "78745", "Phone": null}, "geometry": {"type": "Point", "coordinates": [-97.797035, 30.2046507]}}, {"id": "1400", "type": "Feature", "properties": {"Program Name": "Kansas City Health Dept", "Street Address 1": "2400 Troost Ave", "City": "Kansas City ", "State": "MO", "Zip": "64108", "Phone": "8165136008"}, "geometry": {"type": "Point", "coordinates": [-94.5836032, 39.0839827]}}, {"id": "1403", "type": "Feature", "properties": {"Program Name": "Susquehanna Valley United Way", "Street Address 1": "228 Arch Street ", "City": "Sunbury", "State": "PA", "Zip": "17801", "Phone": "5709880993"}, "geometry": {"type": "Point", "coordinates": [-76.7703092, 40.8583489]}}]}